[
  {
    "name": "Le Quinzième - Cyril Lignac",
    "url": "https://restaurant.michelin.fr/2dtfbbi/le-quinzieme-cyril-lignac-paris-15",
    "address": {
      "street": "31 av. de Versailles",
      "postalCode": "75016",
      "city": "Paris"
    }
  },
  {
    "name": "1217",
    "url": "https://restaurant.michelin.fr/2bfuk4c/1217-bagnols",
    "address": {
      "street": "D2007",
      "postalCode": "45290",
      "city": "Les Bézards"
    }
  },
  {
    "name": "Assiette Champenoise",
    "url": "https://restaurant.michelin.fr/2cliodi/assiette-champenoise-tinqueux",
    "address": {
      "street": "2A Route de Caladroy",
      "postalCode": "66720",
      "city": "Bélesta"
    }
  },
  {
    "name": "Château de Pray",
    "url": "https://restaurant.michelin.fr/2bcbfo0/chateau-de-pray-amboise",
    "address": {
      "street": "chemin du lac",
      "postalCode": "04160",
      "city": "Château-Arnoux"
    }
  },
  {
    "name": "Domaine d'Auriac",
    "url": "https://restaurant.michelin.fr/2bmf006/domaine-dauriac-carcassonne",
    "address": {
      "street": "Place Kléber",
      "postalCode": "69006",
      "city": "Lyon 06"
    }
  },
  {
    "name": "Têtedoie",
    "url": "https://restaurant.michelin.fr/29tfnmd288/tetedoie-lyon-05",
    "address": {
      "street": "Village des Baux-de-Provence",
      "postalCode": "13520",
      "city": "Les Baux-de-Provence"
    }
  },
  {
    "name": "La Barbacane",
    "url": "https://restaurant.michelin.fr/292xja3/la-barbacane-carcassonne",
    "address": {
      "street": "90 route des Framboises",
      "postalCode": "74140",
      "city": "Machilly"
    }
  },
  {
    "name": "Le Fanal",
    "url": "https://restaurant.michelin.fr/yw26sgs/le-fanal-banyuls-sur-mer",
    "address": {
      "street": "au Fornet",
      "postalCode": "73150",
      "city": "Val-d'Isère"
    }
  },
  {
    "name": "Carré des Feuillants",
    "url": "https://restaurant.michelin.fr/2a7gjv9/carre-des-feuillants-paris-01",
    "address": {
      "street": "Route de Suresnes",
      "postalCode": "75016",
      "city": "Paris"
    }
  },
  {
    "name": "Le Taillevent",
    "url": "https://restaurant.michelin.fr/2ab9sgk/le-taillevent-paris-08",
    "address": {
      "street": "40 Rue de la Plage",
      "postalCode": "69660",
      "city": "Collonges-au-Mont-d'Or"
    }
  },
  {
    "name": "Le Hittau",
    "url": "https://restaurant.michelin.fr/2d9288s/le-hittau-saint-vincent-de-tyrosse",
    "address": {
      "street": "digue de mer",
      "postalCode": "62930",
      "city": "Wimereux"
    }
  },
  {
    "name": "Dominique Bouchet",
    "url": "https://restaurant.michelin.fr/2doe0bh/dominique-bouchet-paris-08",
    "address": {
      "street": "Château de Chilly",
      "postalCode": "74140",
      "city": "Douvaine"
    }
  },
  {
    "name": "G.a. au Manoir de Rétival",
    "url": "https://restaurant.michelin.fr/9rnckmj/ga-au-manoir-de-retival-caudebec-en-caux",
    "address": {
      "street": "Avenue Gabriel-Péri",
      "postalCode": "83740",
      "city": "LA-CADIERE-D'AZUR"
    }
  },
  {
    "name": "Mirazur",
    "url": "https://restaurant.michelin.fr/2d440f7/mirazur-menton",
    "address": {
      "street": "1593 av. de Lyon",
      "postalCode": "01960",
      "city": "Péronnas"
    }
  },
  {
    "name": "Gill",
    "url": "https://restaurant.michelin.fr/2aqe7bm/gill-rouen",
    "address": {
      "street": "Le Cloitre",
      "postalCode": "04300",
      "city": "Mane"
    }
  },
  {
    "name": "Le Magasin aux Vivres",
    "url": "https://restaurant.michelin.fr/2dse7wh/le-magasin-aux-vivres-metz",
    "address": {
      "street": "15 r. du Golf",
      "postalCode": "21200",
      "city": "Levernois"
    }
  },
  {
    "name": "La Rotonde",
    "url": "https://restaurant.michelin.fr/29uqy46/la-rotonde-la-tour-de-salvagny",
    "address": {
      "street": "6 Place Georges Clemenceau",
      "postalCode": "42300",
      "city": "Roanne"
    }
  },
  {
    "name": "Relais de la Poste",
    "url": "https://restaurant.michelin.fr/2c6dfrz/relais-de-la-poste-magescq",
    "address": {
      "street": "10 rue Pisseloup",
      "postalCode": "52330",
      "city": "COLOMBEY-LES-DEUX-EGLISES"
    }
  },
  {
    "name": "L'Essentiel",
    "url": "https://restaurant.michelin.fr/40jnqvq/lessentiel-deauville",
    "address": {
      "street": "600 route de Saint Bruno",
      "postalCode": "30131",
      "city": "Pujaut"
    }
  },
  {
    "name": "Le Bénaton",
    "url": "https://restaurant.michelin.fr/28u9h7z/le-benaton-beaune",
    "address": {
      "street": "8660 RD 25",
      "postalCode": "83830",
      "city": "Callas"
    }
  },
  {
    "name": "Ithurria",
    "url": "https://restaurant.michelin.fr/2bbain5/ithurria-ainhoa",
    "address": {
      "street": "40 r. Taine",
      "postalCode": "75012",
      "city": "Paris 12"
    }
  },
  {
    "name": "Le Moulin de l'Abbaye",
    "url": "https://restaurant.michelin.fr/2bk4rlv/le-moulin-de-labbaye-brantome-en-perigord",
    "address": {
      "street": "13 r. J. -Mermoz",
      "postalCode": "74940",
      "city": "Annecy"
    }
  },
  {
    "name": "Chez Michèle",
    "url": "https://restaurant.michelin.fr/29pia6z/chez-michele-languimberg",
    "address": {
      "street": "85 Avenue Kléber",
      "postalCode": "75016",
      "city": "Paris"
    }
  },
  {
    "name": "Le Kléber",
    "url": "https://restaurant.michelin.fr/29bkalt/le-kleber-crest",
    "address": {
      "street": "43 bd Thiers",
      "postalCode": "64500",
      "city": "Saint-Jean-de-Luz"
    }
  },
  {
    "name": "Auguste",
    "url": "https://restaurant.michelin.fr/2dof8zp/auguste-paris-07",
    "address": {
      "street": "25 Rue du Faubourg-Bretonnière",
      "postalCode": "21200",
      "city": "BEAUNE"
    }
  },
  {
    "name": "Dyades au Domaine des Étangs",
    "url": "https://restaurant.michelin.fr/2f0stuh/dyades-au-domaine-des-etangs-massignac",
    "address": {
      "street": "Les Etangs",
      "postalCode": "16310",
      "city": "MASSIGNAC"
    }
  },
  {
    "name": "Le Cerisier",
    "url": "https://restaurant.michelin.fr/29qd0ox/le-cerisier-laventie",
    "address": {
      "street": "20 rue du Kelenn",
      "postalCode": "29660",
      "city": "Carantec"
    }
  },
  {
    "name": "L'Auberge Basque",
    "url": "https://restaurant.michelin.fr/2efx4u4/lauberge-basque-saint-pee-sur-nivelle",
    "address": {
      "street": "7 r. de l'Hôpital",
      "postalCode": "56890",
      "city": "Saint-Avé"
    }
  },
  {
    "name": "Restaurant du Château",
    "url": "https://restaurant.michelin.fr/2chv2z6/restaurant-du-chateau-chancelade",
    "address": {
      "street": "135 route St-Dominique",
      "postalCode": "75007",
      "city": "Paris"
    }
  },
  {
    "name": "Château de Courban",
    "url": "https://restaurant.michelin.fr/2emcabb/chateau-de-courban-courban",
    "address": {
      "street": "2, rue d'Argentine",
      "postalCode": "21210",
      "city": "Saulieu"
    }
  },
  {
    "name": "Le Pergolèse",
    "url": "https://restaurant.michelin.fr/2aeinde/le-pergolese-paris-16",
    "address": {
      "street": "15 Place Vendôme",
      "postalCode": "75001",
      "city": "Paris"
    }
  },
  {
    "name": "Loiseau des Vignes",
    "url": "https://restaurant.michelin.fr/2ef8rpt/loiseau-des-vignes-beaune",
    "address": {
      "street": "D5",
      "postalCode": "46150",
      "city": "Saint-Médard"
    }
  },
  {
    "name": "En Marge",
    "url": "https://restaurant.michelin.fr/q8lel2a/en-marge-aureville",
    "address": {
      "street": "10 rue de L'Outre",
      "postalCode": "67000",
      "city": "STRASBOURG"
    }
  },
  {
    "name": "Le Pavillon des Boulevards",
    "url": "https://restaurant.michelin.fr/28y19tl/le-pavillon-des-boulevards-bordeaux",
    "address": {
      "street": "3 avenue Henry-Chéron",
      "postalCode": "14000",
      "city": "Caen"
    }
  },
  {
    "name": "La Chaumière",
    "url": "https://restaurant.michelin.fr/2buz227/la-chaumiere-dole",
    "address": {
      "street": "11 r. de la Chapelle",
      "postalCode": "91150",
      "city": "Boutervilliers"
    }
  },
  {
    "name": "Pierre Gagnaire",
    "url": "https://restaurant.michelin.fr/2abhfav/pierre-gagnaire-paris-08",
    "address": {
      "street": "13 rue des Beaux-Arts",
      "postalCode": "75006",
      "city": "Paris 06"
    }
  },
  {
    "name": "La Dame de Pic",
    "url": "https://restaurant.michelin.fr/jgnpf8y/la-dame-de-pic-paris-01",
    "address": {
      "street": "12, boulevard Mirabeau",
      "postalCode": "13210",
      "city": "SAINT REMY DE PROVENCE"
    }
  },
  {
    "name": "Le Pressoir",
    "url": "https://restaurant.michelin.fr/2b6sa1u/le-pressoir-saint-ave",
    "address": {
      "street": "3 Rue Arsène Houssaye",
      "postalCode": "75008",
      "city": "Paris 08"
    }
  },
  {
    "name": "L'Aparté",
    "url": "https://restaurant.michelin.fr/xay649ax/laparte-montrabe",
    "address": {
      "street": "4B Place Carnot",
      "postalCode": "21200",
      "city": "Beaune"
    }
  },
  {
    "name": "La Bonne Étape",
    "url": "https://restaurant.michelin.fr/2bp5jf6/la-bonne-etape-chateau-arnoux",
    "address": {
      "street": "5 rue Michelet",
      "postalCode": "21000",
      "city": "DIJON"
    }
  },
  {
    "name": "Aux Pesked",
    "url": "https://restaurant.michelin.fr/2aru9pt/aux-pesked-saint-brieuc",
    "address": {
      "street": "21 Rue de l’Europe",
      "postalCode": "31850",
      "city": "MONTRABE"
    }
  },
  {
    "name": "Il Carpaccio",
    "url": "https://restaurant.michelin.fr/2fdi6av208/il-carpaccio-paris-08",
    "address": {
      "street": "40, Rue Pergolèse",
      "postalCode": "75016",
      "city": "Paris"
    }
  },
  {
    "name": "Alain Llorca",
    "url": "https://restaurant.michelin.fr/2e4vi29/alain-llorca-la-colle-sur-loup",
    "address": {
      "street": "r. Pierre-Benoit",
      "postalCode": "46190",
      "city": "Sousceyrac"
    }
  },
  {
    "name": "Auberge du Vieux Puits",
    "url": "https://restaurant.michelin.fr/29ib1yg/auberge-du-vieux-puits-fontjoncouse",
    "address": {
      "street": "84 bd des Vendéens",
      "postalCode": "85360",
      "city": "La Tranche-sur-Mer"
    }
  },
  {
    "name": "Pierre Orsi",
    "url": "https://restaurant.michelin.fr/29te7ik/pierre-orsi-lyon-06",
    "address": {
      "street": "5 Avenue Saint-Victor",
      "postalCode": "11360",
      "city": "Fontjoncouse"
    }
  },
  {
    "name": "L'Oustau de Baumanière",
    "url": "https://restaurant.michelin.fr/28tn79w/loustau-de-baumaniere-les-baux-de-provence",
    "address": {
      "street": "158 Vallon-des-Auffes",
      "postalCode": "13007",
      "city": "Marseille"
    }
  },
  {
    "name": "Les Fresques",
    "url": "https://restaurant.michelin.fr/2ax5yy8/les-fresques-monestier",
    "address": {
      "street": "Square Saint-Roch",
      "postalCode": "76600",
      "city": "Le Havre"
    }
  },
  {
    "name": "Bruno",
    "url": "https://restaurant.michelin.fr/29s5co3/bruno-lorgues",
    "address": {
      "street": "10 rue Hôtel-Dieu",
      "postalCode": "21200",
      "city": "Beaune"
    }
  },
  {
    "name": "Le Brittany",
    "url": "https://restaurant.michelin.fr/2cnbixn/le-brittany-roscoff",
    "address": {
      "street": "48 av. Henri-Dunant",
      "postalCode": "06130",
      "city": "Grasse"
    }
  },
  {
    "name": "La Maison de Bournissac",
    "url": "https://restaurant.michelin.fr/2csipcf/la-maison-de-bournissac-noves",
    "address": {
      "street": "48 bd du Levant",
      "postalCode": "83230",
      "city": "Bormes-les-Mimosas"
    }
  },
  {
    "name": "Les Bacchanales",
    "url": "https://restaurant.michelin.fr/2en7eas/les-bacchanales-vence",
    "address": {
      "street": "15 r. Caulaincourt",
      "postalCode": "75018",
      "city": "Paris"
    }
  },
  {
    "name": "Le Quincangrogne",
    "url": "https://restaurant.michelin.fr/u1pjp7ux/le-quincangrogne-dampmart",
    "address": {
      "street": "14 rue Cauchy",
      "postalCode": "75015",
      "city": "Paris"
    }
  },
  {
    "name": "J.-M. Pérochon",
    "url": "https://restaurant.michelin.fr/2dyiess/j-m-perochon-bretignolles-sur-mer",
    "address": {
      "street": "Lieu-dit Le Buot",
      "postalCode": "35350",
      "city": "Saint-Méloir-des-Ondes"
    }
  },
  {
    "name": "Les Bas-Rupts",
    "url": "https://restaurant.michelin.fr/29jqk2d/les-bas-rupts-bas-rupts",
    "address": {
      "street": "29 Rue Mirabeau",
      "postalCode": "14800",
      "city": "DEAUVILLE"
    }
  },
  {
    "name": "Agapé",
    "url": "https://restaurant.michelin.fr/2eo1t6h/agape-paris-17",
    "address": {
      "street": "200 avenue du Casino",
      "postalCode": "69890",
      "city": "LA-TOUR-DE-SALVAGNY"
    }
  },
  {
    "name": "Le Jardin des Remparts",
    "url": "https://restaurant.michelin.fr/28u6ql7/le-jardin-des-remparts-beaune",
    "address": {
      "street": "57 rte de Lyon",
      "postalCode": "38080",
      "city": "Saint-Alban-de-Roche"
    }
  },
  {
    "name": "Frédéric Doucet",
    "url": "https://restaurant.michelin.fr/295q5w8/frederic-doucet-charolles",
    "address": {
      "street": "quartier Helbarron",
      "postalCode": "64310",
      "city": "Saint-Pée-sur-Nivelle"
    }
  },
  {
    "name": "Le 39V",
    "url": "https://restaurant.michelin.fr/2fd19do/le-39v-paris-08",
    "address": {
      "street": "D18",
      "postalCode": "24240",
      "city": "Monestier"
    }
  },
  {
    "name": "Le Pré Catelan",
    "url": "https://restaurant.michelin.fr/2af46v7/le-pre-catelan-paris-16",
    "address": {
      "street": "30 r. du Gén.-de-Gaulle",
      "postalCode": "67520",
      "city": "Marlenheim"
    }
  },
  {
    "name": "Aigue Marine",
    "url": "https://restaurant.michelin.fr/2cz1lgu/aigue-marine-treguier",
    "address": {
      "street": "120 r. Croix-de-Seguey",
      "postalCode": "33000",
      "city": "Bordeaux"
    }
  },
  {
    "name": "Restaurant du Palais Royal",
    "url": "https://restaurant.michelin.fr/2a7qx35/restaurant-du-palais-royal-paris-01",
    "address": {
      "street": "24 avenue de Maremne",
      "postalCode": "40140",
      "city": "Magescq"
    }
  },
  {
    "name": "Le Saint-Estève",
    "url": "https://restaurant.michelin.fr/2x1lce26/le-saint-esteve-le-tholonet",
    "address": {
      "street": "montée d'Eyragues",
      "postalCode": "13550",
      "city": "Les Paluds-des-Noves"
    }
  },
  {
    "name": "JY'S",
    "url": "https://restaurant.michelin.fr/298563e/jys-colmar",
    "address": {
      "street": "53 rte de Lapoutroie",
      "postalCode": "68240",
      "city": "Kaysersberg"
    }
  },
  {
    "name": "Auberge de l'Île Barbe",
    "url": "https://restaurant.michelin.fr/29tj1pj/auberge-de-lile-barbe-lyon-09",
    "address": {
      "street": "2250 route cézanne D17",
      "postalCode": "13100",
      "city": "Le Tholonet"
    }
  },
  {
    "name": "La Tour des Vents",
    "url": "https://restaurant.michelin.fr/28vws7k/la-tour-des-vents-monbazillac",
    "address": {
      "street": "7 r. Tronchet",
      "postalCode": "75008",
      "city": "Paris"
    }
  },
  {
    "name": "Les Pêcheurs",
    "url": "https://restaurant.michelin.fr/29ol879/les-pecheurs-antibes",
    "address": {
      "street": "D235",
      "postalCode": "61140",
      "city": "Bagnoles-de-l'Orne"
    }
  },
  {
    "name": "La Table de Franck Putelat",
    "url": "https://restaurant.michelin.fr/2e06z2s/la-table-de-franck-putelat-carcassonne",
    "address": {
      "street": "r. Principale",
      "postalCode": "05600",
      "city": "St-Crépin"
    }
  },
  {
    "name": "Le Restaurant",
    "url": "https://restaurant.michelin.fr/2cfem9h/le-restaurant-paris-06",
    "address": {
      "street": "21 rue du Gén. -de-Gaulle",
      "postalCode": "67610",
      "city": "LA-WANTZENAU"
    }
  },
  {
    "name": "Christophe Bacquié",
    "url": "https://restaurant.michelin.fr/2bmu0gi/christophe-bacquie-le-castellet",
    "address": {
      "street": "D392",
      "postalCode": "35530",
      "city": "Noyal-sur-Vilaine"
    }
  },
  {
    "name": "L'Orangerie du Château",
    "url": "https://restaurant.michelin.fr/28xeo4n/lorangerie-du-chateau-blois",
    "address": {
      "street": "1 r. Léon-le-Cerf",
      "postalCode": "22530",
      "city": "Mûr-de-Bretagne"
    }
  },
  {
    "name": "Paul Bocuse",
    "url": "https://restaurant.michelin.fr/29tbf1t/paul-bocuse-collonges-au-mont-dor",
    "address": {
      "street": "D213",
      "postalCode": "73130",
      "city": "Saint-Martin-sur-la-Chambre"
    }
  },
  {
    "name": "Les Tablettes de Jean-Louis Nomicos",
    "url": "https://restaurant.michelin.fr/2fdwgd3/les-tablettes-de-jean-louis-nomicos-paris-16",
    "address": {
      "street": "Bort l'Etang",
      "postalCode": "63190",
      "city": "Bort-l'Étang"
    }
  },
  {
    "name": "Auberge des Templiers",
    "url": "https://restaurant.michelin.fr/2bicgcl/auberge-des-templiers-les-bezards",
    "address": {
      "street": "12 rue Royale",
      "postalCode": "69001",
      "city": "LYON"
    }
  },
  {
    "name": "Stéphane Derbord",
    "url": "https://restaurant.michelin.fr/29dkmez/stephane-derbord-dijon",
    "address": {
      "street": "212 av. de Nonneville",
      "postalCode": "93600",
      "city": "Aulnay-sous-Bois"
    }
  },
  {
    "name": "Relais de la Poste",
    "url": "https://restaurant.michelin.fr/2b1jv34/relais-de-la-poste-la-wantzenau",
    "address": {
      "street": "15 avenue des Reynats",
      "postalCode": "24650",
      "city": "Chancelade"
    }
  },
  {
    "name": "La Coopérative",
    "url": "https://restaurant.michelin.fr/3w3putu/la-cooperative-belesta",
    "address": {
      "street": "28 quai du Châtelet",
      "postalCode": "45000",
      "city": "Orléans"
    }
  },
  {
    "name": "Ô Flaveurs",
    "url": "https://restaurant.michelin.fr/2dr6qsw/o-flaveurs-douvaine",
    "address": {
      "street": "78 rte Nationale",
      "postalCode": "80480",
      "city": "Dury"
    }
  },
  {
    "name": "La Table de Patrick Raingeard",
    "url": "https://restaurant.michelin.fr/2e2m5rq/la-table-de-patrick-raingeard-eze-bord-de-mer",
    "address": {
      "street": "3 Grande-Rue",
      "postalCode": "78160",
      "city": "Marly-le-Roi"
    }
  },
  {
    "name": "Raphaël Vionnet",
    "url": "https://restaurant.michelin.fr/6pyhps6h/raphael-vionnet-thonon-les-bains",
    "address": {
      "street": "110 Galerie de Valois - Jardin du Palais Royal",
      "postalCode": "75001",
      "city": "Paris 01"
    }
  },
  {
    "name": "Le Clarence",
    "url": "https://restaurant.michelin.fr/sntd30zx/le-clarence-paris-08",
    "address": {
      "street": "18 av. du 23-Janvier",
      "postalCode": "71700",
      "city": "Tournus"
    }
  },
  {
    "name": "Ivan Vautier",
    "url": "https://restaurant.michelin.fr/290z3mh/ivan-vautier-caen",
    "address": {
      "street": "45 bd de la Croisette",
      "postalCode": "06400",
      "city": "Cannes"
    }
  },
  {
    "name": "Le Coquillage",
    "url": "https://restaurant.michelin.fr/291q1xd/le-coquillage-saint-meloir-des-ondes",
    "address": {
      "street": "Route de Saint-Hilaire",
      "postalCode": "11000",
      "city": "Carcassonne"
    }
  },
  {
    "name": "Yoann Conte",
    "url": "https://restaurant.michelin.fr/2fcm39b/yoann-conte-veyrier-du-lac",
    "address": {
      "street": "",
      "postalCode": "46200",
      "city": "Lacave"
    }
  },
  {
    "name": "Le Bouche à Oreille",
    "url": "https://restaurant.michelin.fr/s5edw9g/le-bouche-oreille-boutervilliers",
    "address": {
      "street": "Place Auguste-Pierre-Pont",
      "postalCode": "11000",
      "city": "Carcassonne"
    }
  },
  {
    "name": "L'Atelier d'Edmond",
    "url": "https://restaurant.michelin.fr/2e1ykis/latelier-dedmond-val-disere",
    "address": {
      "street": "17 r. N.-D.-des-Victoires",
      "postalCode": "75002",
      "city": "Paris"
    }
  },
  {
    "name": "Le Refuge des Gourmets",
    "url": "https://restaurant.michelin.fr/29uv8a7/le-refuge-des-gourmets-machilly",
    "address": {
      "street": "58 r. de Grosbliederstroff",
      "postalCode": "57200",
      "city": "Sarreguemines"
    }
  },
  {
    "name": "Maison Clovis",
    "url": "https://restaurant.michelin.fr/2eqhwui/maison-clovis-lyon-06",
    "address": {
      "street": "47 Avenue du Moulin de la Croix",
      "postalCode": "06250",
      "city": "Mougins"
    }
  },
  {
    "name": "Loiseau rive Gauche",
    "url": "https://restaurant.michelin.fr/2aaahmg/loiseau-rive-gauche-paris-07",
    "address": {
      "street": "88 bd de Créac'h-Gwen",
      "postalCode": "29000",
      "city": "Quimper"
    }
  },
  {
    "name": "Hostellerie de l'Abbaye de la Celle",
    "url": "https://restaurant.michelin.fr/2bn8o1t/hostellerie-de-labbaye-de-la-celle-la-celle",
    "address": {
      "street": "3 rue de la Gare",
      "postalCode": "62840",
      "city": "LAVENTIE"
    }
  },
  {
    "name": "La Marelle",
    "url": "https://restaurant.michelin.fr/28zbkc6/la-marelle-peronnas",
    "address": {
      "street": "21 bis Rue de l'Océan",
      "postalCode": "85470",
      "city": "Brem-sur-Mer"
    }
  },
  {
    "name": "Fanny Rey & Jonathan Wahid",
    "url": "https://restaurant.michelin.fr/389tiwsv/fanny-rey-jonathan-wahid-saint-remy-de-provence",
    "address": {
      "street": "11 Rue Treilhard",
      "postalCode": "75008",
      "city": "Paris"
    }
  },
  {
    "name": "La Liégeoise",
    "url": "https://restaurant.michelin.fr/2fa1zgi202/la-liegeoise-wimereux",
    "address": {
      "street": "1 av. Louis-Gaume",
      "postalCode": "33260",
      "city": "La Teste-de-Buch"
    }
  },
  {
    "name": "Numéro 3",
    "url": "https://restaurant.michelin.fr/2dnmje9/numero-3-le-tremblay-sur-mauldre",
    "address": {
      "street": "51 rue Jouffroy-d'Abbans",
      "postalCode": "75017",
      "city": "Paris 17"
    }
  },
  {
    "name": "Paloma",
    "url": "https://restaurant.michelin.fr/280mq6yn/paloma-mougins",
    "address": {
      "street": "Corniche de Rétival",
      "postalCode": "76490",
      "city": "Caudebec-en-Caux"
    }
  },
  {
    "name": "Patrick Jeffroy",
    "url": "https://restaurant.michelin.fr/2bm9rwc/patrick-jeffroy-carantec",
    "address": {
      "street": "40 av. Paul Vaillant-Couturier",
      "postalCode": "51430",
      "city": "Tinqueux"
    }
  },
  {
    "name": "Mère Brazier",
    "url": "https://restaurant.michelin.fr/2et3r6g/mere-brazier-lyon",
    "address": {
      "street": "Hotel du Castellet Route des Hauts du Camp",
      "postalCode": "83330",
      "city": "Le Castellet"
    }
  },
  {
    "name": "Le Moulin du Roc",
    "url": "https://restaurant.michelin.fr/2bk7w2q/le-moulin-du-roc-champagnac-de-belair",
    "address": {
      "street": "1 place du Capitole",
      "postalCode": "31000",
      "city": "Toulouse"
    }
  },
  {
    "name": "William Frachot",
    "url": "https://restaurant.michelin.fr/2buprmi/william-frachot-dijon",
    "address": {
      "street": "228 Rue de Rivoli",
      "postalCode": "75001",
      "city": "Paris"
    }
  },
  {
    "name": "Hostellerie Bérard",
    "url": "https://restaurant.michelin.fr/2bl33gu/hostellerie-berard-la-cadiere-dazur",
    "address": {
      "street": "54 Vie-de-Boussieu",
      "postalCode": "38300",
      "city": "Ruy"
    }
  },
  {
    "name": "Le Chiberta",
    "url": "https://restaurant.michelin.fr/2abl39j/le-chiberta-paris-08",
    "address": {
      "street": "30, Avenue Aristide Briand",
      "postalCode": "06500",
      "city": "Menton"
    }
  },
  {
    "name": "L'Almandin",
    "url": "https://restaurant.michelin.fr/2as8r3a/lalmandin-saint-cyprien-plage",
    "address": {
      "street": "Les Ritons",
      "postalCode": "38250",
      "city": "Corrençon-en-Vercors"
    }
  },
  {
    "name": "Mathieu Pacaud - Histoires",
    "url": "https://restaurant.michelin.fr/raf8m6mo/mathieu-pacaud-histoires-paris-16",
    "address": {
      "street": "20 Rue du Louvre",
      "postalCode": "75001",
      "city": "Paris 01"
    }
  },
  {
    "name": "Auberge du Bon Laboureur",
    "url": "https://restaurant.michelin.fr/2bpwyme/auberge-du-bon-laboureur-chenonceaux",
    "address": {
      "street": "5 rte de la Corniche",
      "postalCode": "78270",
      "city": "Rolleboise"
    }
  },
  {
    "name": "Le Cloître",
    "url": "https://restaurant.michelin.fr/2ep5ghq/le-cloitre-mane",
    "address": {
      "street": "27 pl. Lacaze Duthiers rčs de l'église",
      "postalCode": "29680",
      "city": "ROSCOFF"
    }
  },
  {
    "name": "Au Trou Gascon",
    "url": "https://restaurant.michelin.fr/2acpe43/au-trou-gascon-paris-12",
    "address": {
      "street": "1 avenue Pierre de Bourdeilles",
      "postalCode": "24310",
      "city": "BRANTOME"
    }
  },
  {
    "name": "Sur Mesure par Thierry Marx",
    "url": "https://restaurant.michelin.fr/6f226za/sur-mesure-par-thierry-marx-paris-01",
    "address": {
      "street": "59 Rue du Légué",
      "postalCode": "22000",
      "city": "Saint-Brieuc"
    }
  },
  {
    "name": "Le Relais Bernard Loiseau",
    "url": "https://restaurant.michelin.fr/2cur8yy/le-relais-bernard-loiseau-saulieu",
    "address": {
      "street": "15 quai de la Tournelle",
      "postalCode": "75005",
      "city": "Paris"
    }
  },
  {
    "name": "Le Violon d'Ingres",
    "url": "https://restaurant.michelin.fr/2aa5u1w/le-violon-dingres-paris-07",
    "address": {
      "street": "181 rte de la Bresse",
      "postalCode": "88400",
      "city": "Bas-Rupts"
    }
  },
  {
    "name": "Le Clos des Sens",
    "url": "https://restaurant.michelin.fr/28pf13h/le-clos-des-sens-annecy-le-vieux",
    "address": {
      "street": "21 bd du Mar.-Foch",
      "postalCode": "49000",
      "city": "Angers"
    }
  },
  {
    "name": "Le Chantecler",
    "url": "https://restaurant.michelin.fr/2a4echf50/le-chantecler-nice",
    "address": {
      "street": "bd Ste-Barbe",
      "postalCode": "29681",
      "city": "Roscoff"
    }
  },
  {
    "name": "Le Carmin",
    "url": "https://restaurant.michelin.fr/8zb6c2d4/le-carmin-beaune",
    "address": {
      "street": "18 r. Eugène-Sue",
      "postalCode": "75018",
      "city": "Paris"
    }
  },
  {
    "name": "Hostellerie la Montagne",
    "url": "https://restaurant.michelin.fr/298i34w/hostellerie-la-montagne-colombey-les-deux-eglises",
    "address": {
      "street": "11 Petite-Rue-St-Jean",
      "postalCode": "13100",
      "city": "Aix-en-Provence"
    }
  },
  {
    "name": "Entre Vigne et Garrigue",
    "url": "https://restaurant.michelin.fr/2etuup9/entre-vigne-et-garrigue-pujaut",
    "address": {
      "street": "85 Avenue Kléber",
      "postalCode": "75016",
      "city": "Paris"
    }
  },
  {
    "name": "Au Vieux Couvent",
    "url": "https://restaurant.michelin.fr/2aogs9u/au-vieux-couvent-rhinau",
    "address": {
      "street": "22 r. de la Comtesse",
      "postalCode": "74170",
      "city": "Saint-Gervais-les-Bains"
    }
  },
  {
    "name": "Benoit",
    "url": "https://restaurant.michelin.fr/2a8isn4/benoit-paris-04",
    "address": {
      "street": "3 rte de Dieppe",
      "postalCode": "76740",
      "city": "Le Bourg-Dun"
    }
  },
  {
    "name": "L'O des Vignes",
    "url": "https://restaurant.michelin.fr/3fa7ojh3/lo-des-vignes-fuisse",
    "address": {
      "street": "8 Rue de Vélizy",
      "postalCode": "92190",
      "city": "Meudon"
    }
  },
  {
    "name": "Maximin Hellio",
    "url": "https://restaurant.michelin.fr/u945qtuv/maximin-hellio-deauville",
    "address": {
      "street": "42 av. Napoléon-III",
      "postalCode": "20110",
      "city": "Propriano"
    }
  },
  {
    "name": "Greuze",
    "url": "https://restaurant.michelin.fr/3uonmfw/greuze-tournus",
    "address": {
      "street": "31 Avenue Franklin Delano Roosevelt",
      "postalCode": "75008",
      "city": "Paris 08"
    }
  },
  {
    "name": "L'Oasis",
    "url": "https://restaurant.michelin.fr/29v9df2/loasis-mandelieu-la-napoule",
    "address": {
      "street": "3 rue du Général de Gaulle",
      "postalCode": "78490",
      "city": "Le Tremblay-sur-Mauldre"
    }
  },
  {
    "name": "JAN",
    "url": "https://restaurant.michelin.fr/38z104i7/jan-nice",
    "address": {
      "street": "72 pl. du Luminaire",
      "postalCode": "71570",
      "city": "Chaintré"
    }
  },
  {
    "name": "Hostellerie Les Gorges de Pennafort",
    "url": "https://restaurant.michelin.fr/2blmwvy/hostellerie-les-gorges-de-pennafort-callas",
    "address": {
      "street": "rte de Bellecôte",
      "postalCode": "73120",
      "city": "Courchevel 1850"
    }
  },
  {
    "name": "Une Table au Sud",
    "url": "https://restaurant.michelin.fr/29w4kky/une-table-au-sud-marseille-02",
    "address": {
      "street": "346 av. du Mar. -Juin",
      "postalCode": "39100",
      "city": "Dole"
    }
  },
  {
    "name": "Le Corot",
    "url": "https://restaurant.michelin.fr/2aiulws5/le-corot-ville-davray",
    "address": {
      "street": "7 rue de la Plage",
      "postalCode": "29550",
      "city": "PLOMODIERN"
    }
  },
  {
    "name": "Auberge La Pomme d'Api",
    "url": "https://restaurant.michelin.fr/2aw36e7/auberge-la-pomme-dapi-saint-pol-de-leon",
    "address": {
      "street": "1204 rte de la Croix-Falgarde",
      "postalCode": "31320",
      "city": "AUREVILLE"
    }
  },
  {
    "name": "La Madeleine",
    "url": "https://restaurant.michelin.fr/2azofoh/la-madeleine-sens",
    "address": {
      "street": "251 r. St-Honoré",
      "postalCode": "75001",
      "city": "Paris 01"
    },
    "id": "21647",
    "isFound": true
  },
  {
    "name": "La Bastide de Moustiers",
    "url": "https://restaurant.michelin.fr/2cbq46s/la-bastide-de-moustiers-moustiers-sainte-marie",
    "address": {
      "street": "57 rue Principale",
      "postalCode": "57810",
      "city": "Languimberg"
    }
  },
  {
    "name": "La Bastide St-Antoine",
    "url": "https://restaurant.michelin.fr/29ktfvn/la-bastide-st-antoine-grasse",
    "address": {
      "street": "6 r. de la Gare",
      "postalCode": "67210",
      "city": "Obernai"
    }
  },
  {
    "name": "Ed.Em",
    "url": "https://restaurant.michelin.fr/295xqfd/edem-chassagne-montrachet",
    "address": {
      "street": "37 bd Foch",
      "postalCode": "51100",
      "city": "Reims"
    }
  },
  {
    "name": "L'Épuisette",
    "url": "https://restaurant.michelin.fr/29w1hx9/lepuisette-marseille-07",
    "address": {
      "street": "129 av. Parmentier",
      "postalCode": "75011",
      "city": "Paris"
    }
  },
  {
    "name": "Flocons de Sel",
    "url": "https://restaurant.michelin.fr/29wzk9t/flocons-de-sel-megeve",
    "address": {
      "street": "chemin du Phare",
      "postalCode": "11370",
      "city": "Leucate"
    }
  },
  {
    "name": "Auberge à la Bonne Idée",
    "url": "https://restaurant.michelin.fr/2ak8isu/auberge-la-bonne-idee-saint-jean-aux-bois",
    "address": {
      "street": "80 chemin des Anglais",
      "postalCode": "11000",
      "city": "Carcassonne"
    }
  },
  {
    "name": "Le Carré d'Alethius",
    "url": "https://restaurant.michelin.fr/2fa4jx5/le-carre-dalethius-charmes-sur-rhone",
    "address": {
      "street": "29 r. de l'Exposition",
      "postalCode": "75007",
      "city": "Paris"
    }
  },
  {
    "name": "Cobéa",
    "url": "https://restaurant.michelin.fr/2adr3mu/cobea-paris-14",
    "address": {
      "street": "9 quai de la Bourse",
      "postalCode": "76000",
      "city": "Rouen"
    }
  },
  {
    "name": "Auberge Frankenbourg",
    "url": "https://restaurant.michelin.fr/29qv5p8/auberge-frankenbourg-la-vancelle",
    "address": {
      "street": "5 Avenue Ney",
      "postalCode": "57000",
      "city": "Metz"
    }
  },
  {
    "name": "Alcyone",
    "url": "https://restaurant.michelin.fr/3f9eksg5n/alcyone-marseille-02",
    "address": {
      "street": "17 Avenue du Fontaulé",
      "postalCode": "66650",
      "city": "Banyuls-sur-Mer"
    }
  },
  {
    "name": "Les Terrasses de Lyon",
    "url": "https://restaurant.michelin.fr/29t2ib7/les-terrasses-de-lyon-lyon-05",
    "address": {
      "street": "54 r. Bourgogne",
      "postalCode": "75007",
      "city": "Paris 07"
    }
  },
  {
    "name": "La Nouvelle Auberge",
    "url": "https://restaurant.michelin.fr/2a2adlj/la-nouvelle-auberge-wihr-au-val",
    "address": {
      "street": "63 avenue de la Grand'Roche",
      "postalCode": "85470",
      "city": "Brétignolles-sur-Mer"
    }
  },
  {
    "name": "Château d'Adoménil",
    "url": "https://restaurant.michelin.fr/2c5ztru/chateau-dadomenil-luneville",
    "address": {
      "street": "av. du Verger",
      "postalCode": "62520",
      "city": "Le Touquet-Paris-Plage"
    }
  },
  {
    "name": "Hostellerie de Plaisance",
    "url": "https://restaurant.michelin.fr/2cp6y7n/hostellerie-de-plaisance-saint-emilion",
    "address": {
      "street": "13 Vieille-Route-des-Pensières",
      "postalCode": "74290",
      "city": "Veyrier-du-Lac"
    }
  },
  {
    "name": "Le Strasbourg",
    "url": "https://restaurant.michelin.fr/28x69qn/le-strasbourg-bitche",
    "address": {
      "street": "14 Boulevard Fernand Point",
      "postalCode": "38200",
      "city": "Vienne"
    }
  },
  {
    "name": "Hervé Busset",
    "url": "https://restaurant.michelin.fr/2brjniu/herve-busset-conques-en-rouergue",
    "address": {
      "street": "7 r. des Carmes",
      "postalCode": "13200",
      "city": "Arles"
    }
  },
  {
    "name": "Alliance",
    "url": "https://restaurant.michelin.fr/t4cp5kaa/alliance-paris-05",
    "address": {
      "street": "80 rue Principale",
      "postalCode": "57330",
      "city": "Zoufftgen"
    }
  },
  {
    "name": "Sylvestre",
    "url": "https://restaurant.michelin.fr/2fe7j1g/sylvestre-paris-07",
    "address": {
      "street": "127 r. du Col. -Müller",
      "postalCode": "56100",
      "city": "Lorient"
    }
  },
  {
    "name": "La Grande Maison de Bernard Magrez",
    "url": "https://restaurant.michelin.fr/a7u4fcer/la-grande-maison-de-bernard-magrez-bordeaux",
    "address": {
      "street": "350 Route de St-Paul",
      "postalCode": "06480",
      "city": "La Colle-sur-Loup"
    }
  },
  {
    "name": "Michel Sarran",
    "url": "https://restaurant.michelin.fr/2b380z8/michel-sarran-toulouse",
    "address": {
      "street": "11 rue du Savoureulx",
      "postalCode": "37350",
      "city": "Le Petit-Pressigny"
    }
  },
  {
    "name": "Hostellerie de Levernois",
    "url": "https://restaurant.michelin.fr/28updvu/hostellerie-de-levernois-levernois",
    "address": {
      "street": "10 bd de la Plage",
      "postalCode": "33120",
      "city": "Arcachon"
    }
  },
  {
    "name": "La Table de Chaintré",
    "url": "https://restaurant.michelin.fr/294fsc5/la-table-de-chaintre-chaintre",
    "address": {
      "street": "17 r. de la Poissonnerie",
      "postalCode": "68000",
      "city": "Colmar"
    }
  },
  {
    "name": "Le Puits du Trésor",
    "url": "https://restaurant.michelin.fr/29pxfvs/le-puits-du-tresor-lastours",
    "address": {
      "street": "2 avenue de la Libération",
      "postalCode": "71120",
      "city": "Charolles"
    }
  },
  {
    "name": "Le Bistrot de Lagarde",
    "url": "https://restaurant.michelin.fr/jfxt32k/le-bistrot-de-lagarde-lagarde-dapt",
    "address": {
      "street": "1 Avenue du Docteur Jean Laigret",
      "postalCode": "41000",
      "city": "Blois"
    }
  },
  {
    "name": "Le Gambetta",
    "url": "https://restaurant.michelin.fr/2ayqw5m/le-gambetta-saumur",
    "address": {
      "street": "8 r. du Pont",
      "postalCode": "33420",
      "city": "Saint-Jean-de-Blaignac"
    }
  },
  {
    "name": "Michel Trama",
    "url": "https://restaurant.michelin.fr/2ckuncq/michel-trama-puymirol",
    "address": {
      "street": "Place Beaubernard",
      "postalCode": "71300",
      "city": "Montceau-les-Mines"
    }
  },
  {
    "name": "Le Chiquito",
    "url": "https://restaurant.michelin.fr/2ago3w6/le-chiquito-mery-sur-oise",
    "address": {
      "street": "728 Route de Villerest",
      "postalCode": "42155",
      "city": "Ouches"
    }
  },
  {
    "name": "Au Déjeuner de Sousceyrac",
    "url": "https://restaurant.michelin.fr/2b0i0m7/au-dejeuner-de-sousceyrac-sousceyrac-en-quercy",
    "address": {
      "street": "10 Place du Président Wilson",
      "postalCode": "21000",
      "city": "Dijon"
    }
  },
  {
    "name": "Le Cercle",
    "url": "https://restaurant.michelin.fr/9trxkaz/le-cercle-bourges",
    "address": {
      "street": "3 r. Marie-Lemonnier",
      "postalCode": "85330",
      "city": "L'Herbaudière"
    }
  },
  {
    "name": "Pertica",
    "url": "https://restaurant.michelin.fr/3u9bmm3c/pertica-vendome",
    "address": {
      "street": "Rue des Clarines",
      "postalCode": "73120",
      "city": "Courchevel 1850"
    }
  },
  {
    "name": "Cayola",
    "url": "https://restaurant.michelin.fr/2arajo6/cayola-bois-de-saint-jean",
    "address": {
      "street": "le bourg",
      "postalCode": "69620",
      "city": "Bagnols"
    }
  },
  {
    "name": "La Closerie",
    "url": "https://restaurant.michelin.fr/2eebgpo/la-closerie-ansouis",
    "address": {
      "street": "2350 route des Arcs, Campagne Mariette",
      "postalCode": "83510",
      "city": "Lorgues"
    }
  },
  {
    "name": "Au Souper Fin",
    "url": "https://restaurant.michelin.fr/29783wk/au-souper-fin-frichemesnil",
    "address": {
      "street": "356 rte de l'Altiport",
      "postalCode": "73120",
      "city": "Courchevel 1850"
    }
  },
  {
    "name": "Le Lièvre Gourmand",
    "url": "https://restaurant.michelin.fr/2f48mjv/le-lievre-gourmand-orleans",
    "address": {
      "street": "4 Rue du Connétable",
      "postalCode": "60500",
      "city": "Chantilly"
    }
  },
  {
    "name": "Septime",
    "url": "https://restaurant.michelin.fr/3xrgyvn/septime-paris-11",
    "address": {
      "street": "9 rue François Rocca",
      "postalCode": "13008",
      "city": "Marseille"
    }
  },
  {
    "name": "La Ribaudière",
    "url": "https://restaurant.michelin.fr/29o99va/la-ribaudiere-bourg-charente",
    "address": {
      "street": "1 rue du Nouaou",
      "postalCode": "40230",
      "city": "SAINT-VINCENT-DE-TYROSSE"
    }
  },
  {
    "name": "Meulien",
    "url": "https://restaurant.michelin.fr/2dtylsa/meulien-tournus",
    "address": {
      "street": "6 r. Dr Bretonneau",
      "postalCode": "37150",
      "city": "Chenonceaux"
    }
  },
  {
    "name": "Auberge au Boeuf",
    "url": "https://restaurant.michelin.fr/2b00ufd/auberge-au-boeuf-sessenheim",
    "address": {
      "street": "25, montée Saint BArthelémy",
      "postalCode": "69005",
      "city": "Lyon 05"
    }
  },
  {
    "name": "Château de Mercuès",
    "url": "https://restaurant.michelin.fr/2blc3qr/chateau-de-mercues-mercues",
    "address": {
      "street": "6 Rue Balzac",
      "postalCode": "75008",
      "city": "Paris 08"
    }
  },
  {
    "name": "Le Cap",
    "url": "https://restaurant.michelin.fr/2cqc8op/le-cap-saint-jean-cap-ferrat",
    "address": {
      "street": "6 r. A. -Dumont",
      "postalCode": "26400",
      "city": "Crest"
    }
  },
  {
    "name": "Auberge de la Mine",
    "url": "https://restaurant.michelin.fr/29hyxpk/auberge-de-la-mine-gue-plat",
    "address": {
      "street": "31 Rue Jean Francois Maufoux",
      "postalCode": "21200",
      "city": "Beaune"
    }
  },
  {
    "name": "Xavier Mathieu",
    "url": "https://restaurant.michelin.fr/2c2u7lh/xavier-mathieu-joucas",
    "address": {
      "street": "3 r. de l'Oise, La Bonneville",
      "postalCode": "95540",
      "city": "Méry-sur-Oise"
    }
  },
  {
    "name": "Aux Anges",
    "url": "https://restaurant.michelin.fr/3m56yu9/aux-anges-roanne",
    "address": {
      "street": "r. du Bourg",
      "postalCode": "71960",
      "city": "Fuissé"
    }
  },
  {
    "name": "L'Olivier",
    "url": "https://restaurant.michelin.fr/2css2bw/lolivier-saint-tropez",
    "address": {
      "street": "1 bis av. des Alpes",
      "postalCode": "71700",
      "city": "Tournus"
    }
  },
  {
    "name": "Le Pressoir d'Argent - Gordon Ramsay",
    "url": "https://restaurant.michelin.fr/2epcrm9/le-pressoir-dargent-gordon-ramsay-bordeaux",
    "address": {
      "street": "13 r. Jean-Beausire",
      "postalCode": "75004",
      "city": "Paris"
    }
  },
  {
    "name": "Kei",
    "url": "https://restaurant.michelin.fr/9tmwymw/kei-paris-01",
    "address": {
      "street": "2 quai du Port",
      "postalCode": "13002",
      "city": "Marseille"
    }
  },
  {
    "name": "La Fourchette des Ducs",
    "url": "https://restaurant.michelin.fr/2a5ztne/la-fourchette-des-ducs-obernai",
    "address": {
      "street": "21 rte des Quatre-Châteaux",
      "postalCode": "11600",
      "city": "Lastours"
    }
  },
  {
    "name": "La Voile",
    "url": "https://restaurant.michelin.fr/9tangja/la-voile-ramatuelle",
    "address": {
      "street": "5 r. M. -Berthelot",
      "postalCode": "22220",
      "city": "Tréguier"
    }
  },
  {
    "name": "Les Terrasses d'Uriage",
    "url": "https://restaurant.michelin.fr/2b5lehi/les-terrasses-duriage-uriage-les-bains",
    "address": {
      "street": "av. Victor-Capoul",
      "postalCode": "32600",
      "city": "Pujaudran"
    }
  },
  {
    "name": "Alain Ducasse au Plaza Athénée",
    "url": "https://restaurant.michelin.fr/2ab76wf/alain-ducasse-au-plaza-athenee-paris-08",
    "address": {
      "street": "av. du Revestel",
      "postalCode": "13260",
      "city": "Cassis"
    }
  },
  {
    "name": "Takao Takano",
    "url": "https://restaurant.michelin.fr/1fchzdq5/takao-takano-lyon-06",
    "address": {
      "street": "1 r. Alsace-Lorraine",
      "postalCode": "50000",
      "city": "Saint-Lô"
    }
  },
  {
    "name": "La Table de la Bergerie",
    "url": "https://restaurant.michelin.fr/i1i7i9b/la-table-de-la-bergerie-le-champ-sur-layon",
    "address": {
      "street": "7 quai Thomas",
      "postalCode": "35260",
      "city": "Cancale"
    }
  },
  {
    "name": "Les Fresques",
    "url": "https://restaurant.michelin.fr/29gdnxp256n/les-fresques-evian-les-bains",
    "address": {
      "street": "r. du Barri",
      "postalCode": "06360",
      "city": "Èze"
    }
  },
  {
    "name": "La Gourmandière - La Table d'Olivier",
    "url": "https://restaurant.michelin.fr/3n5gkk2/la-gourmandiere-la-table-dolivier-vannes",
    "address": {
      "street": "Route du Tunnel du Chat",
      "postalCode": "73370",
      "city": "Le Bourget du Lac"
    }
  },
  {
    "name": "Auberge de l'Abbaye",
    "url": "https://restaurant.michelin.fr/2dnoa2o/auberge-de-labbaye-ambronay",
    "address": {
      "street": "1 chemin du Cimetière-Marin",
      "postalCode": "34200",
      "city": "Sète"
    }
  },
  {
    "name": "Les Trois Soleils de Montal",
    "url": "https://restaurant.michelin.fr/2coonxc/les-trois-soleils-de-montal-saint-cere",
    "address": {
      "street": "21 Grand-Rue",
      "postalCode": "06140",
      "city": "Tourrettes-sur-Loup"
    }
  },
  {
    "name": "Mavrommatis",
    "url": "https://restaurant.michelin.fr/2a95vol/mavrommatis-paris-05",
    "address": {
      "street": "Rue de l'Ouest",
      "postalCode": "06110",
      "city": "Le Cannet"
    }
  },
  {
    "name": "Casadelmar",
    "url": "https://restaurant.michelin.fr/2dk81h5143/casadelmar-porto-vecchio",
    "address": {
      "street": "3 rue St-Philippe-du-Roule",
      "postalCode": "75008",
      "city": "Paris 08"
    }
  },
  {
    "name": "Emporio Armani Ristorante",
    "url": "https://restaurant.michelin.fr/3044086/emporio-armani-ristorante-paris-06",
    "address": {
      "street": "13 rue des Berceaux",
      "postalCode": "51200",
      "city": "Épernay"
    }
  },
  {
    "name": "I Salti",
    "url": "https://restaurant.michelin.fr/3ffu4gq2/i-salti-belgodere",
    "address": {
      "street": "Boulevard des Crêtes",
      "postalCode": "83580",
      "city": "Gassin"
    }
  },
  {
    "name": "La Maison des Bois - Marc Veyrat",
    "url": "https://restaurant.michelin.fr/8zgzs262/la-maison-des-bois-marc-veyrat-manigod",
    "address": {
      "street": "17 Avenue F. -D. -Roosevelt",
      "postalCode": "75008",
      "city": "Paris 08"
    }
  },
  {
    "name": "Flaveurs",
    "url": "https://restaurant.michelin.fr/2e043qi/flaveurs-valence",
    "address": {
      "street": "31 av. George V",
      "postalCode": "75008",
      "city": "Paris 08"
    }
  },
  {
    "name": "Stéphane Carbone",
    "url": "https://restaurant.michelin.fr/2enzj8x/stephane-carbone-caen",
    "address": {
      "street": "Boulevard de l'Almandin",
      "postalCode": "66750",
      "city": "Saint-Cyprien"
    }
  },
  {
    "name": "Le Beaulieu",
    "url": "https://restaurant.michelin.fr/29vchdk/le-beaulieu-le-mans",
    "address": {
      "street": "5 rue Bourgogne",
      "postalCode": "75007",
      "city": "Paris 07"
    }
  },
  {
    "name": "L'Esquisse",
    "url": "https://restaurant.michelin.fr/9tr3fvt/lesquisse-annecy",
    "address": {
      "street": "36 pl. d'Armes",
      "postalCode": "71150",
      "city": "Chagny"
    }
  },
  {
    "name": "L'Axel",
    "url": "https://restaurant.michelin.fr/29i66ux/laxel-fontainebleau",
    "address": {
      "street": "12 Rue Lascaris",
      "postalCode": "06000",
      "city": "Nice"
    }
  },
  {
    "name": "Aida",
    "url": "https://restaurant.michelin.fr/2dzh7q2/aida-paris-07",
    "address": {
      "street": "28 r. Stanislas",
      "postalCode": "54000",
      "city": "Nancy"
    }
  },
  {
    "name": "Maison Jeunet",
    "url": "https://restaurant.michelin.fr/28pylpu/maison-jeunet-arbois",
    "address": {
      "street": "800 cours F. Peyre (rte de Carpentras)",
      "postalCode": "84800",
      "city": "L'Isle-sur-la-Sorgue"
    }
  },
  {
    "name": "Auberge La Fenière",
    "url": "https://restaurant.michelin.fr/29sgjsx279/auberge-la-feniere-cadenet",
    "address": {
      "street": "18 r. Fabert",
      "postalCode": "75007",
      "city": "Paris"
    }
  },
  {
    "name": "Christopher Coutanceau",
    "url": "https://restaurant.michelin.fr/2apfrj5/christopher-coutanceau-la-rochelle",
    "address": {
      "street": "3 r. St-Ambroise",
      "postalCode": "19100",
      "city": "Brive-la-Gaillarde"
    }
  },
  {
    "name": "Dan B. - La Table de Ventabren",
    "url": "https://restaurant.michelin.fr/2b7at88/dan-b-la-table-de-ventabren-ventabren",
    "address": {
      "street": "125 Rue de Sèze",
      "postalCode": "69006",
      "city": "Lyon"
    }
  },
  {
    "name": "L'Étang du Moulin",
    "url": "https://restaurant.michelin.fr/28xqe8v/letang-du-moulin-bonnetage",
    "address": {
      "street": "Marché Saint Pierre 1 étage",
      "postalCode": "63000",
      "city": "Clermont-Ferrand"
    }
  },
  {
    "name": "Les Trois Rochers",
    "url": "https://restaurant.michelin.fr/2bi0j2j/les-trois-rochers-sainte-marine",
    "address": {
      "street": "Rue du Cèdre",
      "postalCode": "37400",
      "city": "Amboise"
    }
  },
  {
    "name": "L'Atelier de Joël Robuchon - Étoile",
    "url": "https://restaurant.michelin.fr/2feca5y/latelier-de-joel-robuchon-etoile-paris-08",
    "address": {
      "street": "7 Rue de l'Abreuvoir",
      "postalCode": "77400",
      "city": "Dampmart"
    }
  },
  {
    "name": "La Bastide de Capelongue",
    "url": "https://restaurant.michelin.fr/2bj1jms/la-bastide-de-capelongue-bonnieux",
    "address": {
      "street": "3 Route de la Baraque",
      "postalCode": "63830",
      "city": "Durtol"
    }
  },
  {
    "name": "L'Aquarelle",
    "url": "https://restaurant.michelin.fr/2dk9wkt/laquarelle-breuillet",
    "address": {
      "street": "Monte-Carlo Beach - Avenue Princesse Grace",
      "postalCode": "06190",
      "city": "Roquebrune Cap-Martin"
    }
  },
  {
    "name": "Maison Prévôt",
    "url": "https://restaurant.michelin.fr/2947j86/maison-prevot-cavaillon",
    "address": {
      "street": "10 Place Général de Gaulle",
      "postalCode": "83170",
      "city": "La Celle"
    }
  },
  {
    "name": "Avel Vor",
    "url": "https://restaurant.michelin.fr/2da93ps/avel-vor-port-louis",
    "address": {
      "street": "8 rue de la chancellerie",
      "postalCode": "78000",
      "city": "Versailles"
    }
  },
  {
    "name": "Ze Kitchen Galerie",
    "url": "https://restaurant.michelin.fr/2a9xcsf/ze-kitchen-galerie-paris-06",
    "address": {
      "street": "20 Rue St-Martin",
      "postalCode": "75004",
      "city": "Paris 04"
    }
  },
  {
    "name": "La Tour",
    "url": "https://restaurant.michelin.fr/2axydtb/la-tour-sancerre",
    "address": {
      "street": "15 Rue Lamennais",
      "postalCode": "75008",
      "city": "Paris"
    }
  },
  {
    "name": "Terre-Mer",
    "url": "https://restaurant.michelin.fr/2f8kr60/terre-mer-auray",
    "address": {
      "street": "1 bd de la Reine",
      "postalCode": "78000",
      "city": "Versailles"
    }
  },
  {
    "name": "La Table des Blot - Auberge du Château",
    "url": "https://restaurant.michelin.fr/2agz71j/la-table-des-blot-auberge-du-chateau-dampierre-en-yvelines",
    "address": {
      "street": "21 bd A.-Duportal",
      "postalCode": "31000",
      "city": "Toulouse"
    }
  },
  {
    "name": "Les Chênes Verts",
    "url": "https://restaurant.michelin.fr/2b4ne7u/les-chenes-verts-tourtour",
    "address": {
      "street": "50 r. Amelot",
      "postalCode": "75011",
      "city": "Paris 11"
    }
  },
  {
    "name": "La Petite Maison de Cucuron",
    "url": "https://restaurant.michelin.fr/29c2o3y/la-petite-maison-de-cucuron-cucuron",
    "address": {
      "street": "le Gué-Plat",
      "postalCode": "61450",
      "city": "La Ferrière-aux-Étangs"
    }
  },
  {
    "name": "SaQuaNa",
    "url": "https://restaurant.michelin.fr/2e11xi8/saquana-honfleur",
    "address": {
      "street": "34 r. St-Dominique",
      "postalCode": "75007",
      "city": "Paris"
    }
  },
  {
    "name": "La Promenade",
    "url": "https://restaurant.michelin.fr/n3jledr/la-promenade-verfeil",
    "address": {
      "street": "10 boulevard du Maréchal-Juin",
      "postalCode": "06600",
      "city": "Antibes"
    }
  },
  {
    "name": "En Pleine Nature",
    "url": "https://restaurant.michelin.fr/s5y0mmq/en-pleine-nature-fonsegrives",
    "address": {
      "street": "24 r. du Col. -Teyssier",
      "postalCode": "57230",
      "city": "Bitche"
    }
  },
  {
    "name": "Mariottat",
    "url": "https://restaurant.michelin.fr/28n68fe/mariottat-agen",
    "address": {
      "street": "12 r. Gambetta",
      "postalCode": "49400",
      "city": "Saumur"
    }
  },
  {
    "name": "Roscanvec",
    "url": "https://restaurant.michelin.fr/2b6s3ty/roscanvec-vannes",
    "address": {
      "street": "16 avenue Bugeaud",
      "postalCode": "75116",
      "city": "Paris 16"
    }
  },
  {
    "name": "Le Mas du Langoustier",
    "url": "https://restaurant.michelin.fr/2c1rglq/le-mas-du-langoustier-hyeres",
    "address": {
      "street": "pl. du Fronton",
      "postalCode": "64250",
      "city": "Ainhoa"
    }
  },
  {
    "name": "Umami",
    "url": "https://restaurant.michelin.fr/2ei9xex/umami-strasbourg",
    "address": {
      "street": "immeuble la Kalinka",
      "postalCode": "73125",
      "city": "La Tania"
    }
  },
  {
    "name": "La Côte Saint-Jacques",
    "url": "https://restaurant.michelin.fr/2c2ma30/la-cote-saint-jacques-joigny",
    "address": {
      "street": "",
      "postalCode": "70170",
      "city": "Vauchoux"
    }
  },
  {
    "name": "Radio",
    "url": "https://restaurant.michelin.fr/2bqajf6/radio-chamalieres",
    "address": {
      "street": "Avenue Eugène Le Roy",
      "postalCode": "24530",
      "city": "Champagnac-de-Belair"
    }
  },
  {
    "name": "L'Arnsbourg",
    "url": "https://restaurant.michelin.fr/yjkdc8kf/larnsbourg-baerenthal",
    "address": {
      "street": "Rue des Cévennes",
      "postalCode": "26000",
      "city": "Valence"
    }
  },
  {
    "name": "Le Gabriel",
    "url": "https://restaurant.michelin.fr/9sqrw32m/le-gabriel-paris-08",
    "address": {
      "street": "Parc naturel régional du Verdon, Chemin de Quinson",
      "postalCode": "04360",
      "city": "Moustiers-Sainte-Marie"
    }
  },
  {
    "name": "Le Georges",
    "url": "https://restaurant.michelin.fr/2boyz17/le-georges-chartres",
    "address": {
      "street": "36 r. du Bœuf",
      "postalCode": "",
      "city": "Lyon 05"
    }
  },
  {
    "name": "Maison Decoret",
    "url": "https://restaurant.michelin.fr/2b7zqic/maison-decoret-vichy",
    "address": {
      "street": "22 pl. Hamelin",
      "postalCode": "14600",
      "city": "Honfleur"
    }
  },
  {
    "name": "Le Castellaras",
    "url": "https://restaurant.michelin.fr/29h5xkp/le-castellaras-fayence",
    "address": {
      "street": "lieu-dit Mirande",
      "postalCode": "71260",
      "city": "Montbellet"
    }
  },
  {
    "name": "Guy Savoy",
    "url": "https://restaurant.michelin.fr/2afciv4/guy-savoy-paris-06",
    "address": {
      "street": "2<E>ème</E> étage Tour Eiffel",
      "postalCode": "75007",
      "city": "Paris"
    }
  },
  {
    "name": "Le Roc Alto",
    "url": "https://restaurant.michelin.fr/8xdk7lc4/le-roc-alto-saint-veran",
    "address": {
      "street": "121 r. St-Honoré",
      "postalCode": "75001",
      "city": "Paris"
    }
  },
  {
    "name": "Lucas Carton",
    "url": "https://restaurant.michelin.fr/2abav0l/lucas-carton-paris-08",
    "address": {
      "street": "1 Avenue des Comtes Duchatel",
      "postalCode": "17150",
      "city": "Mirambeau"
    }
  },
  {
    "name": "L'Arcane",
    "url": "https://restaurant.michelin.fr/vx40rloc/larcane-paris-18",
    "address": {
      "street": "19a rte Ostheim",
      "postalCode": "68340",
      "city": "Zellenberg"
    }
  },
  {
    "name": "Le Haut-Allier",
    "url": "https://restaurant.michelin.fr/2bc2prd/le-haut-allier-le-pont-dalleyras",
    "address": {
      "street": "7 Rue de la République",
      "postalCode": "30000",
      "city": "nimes"
    }
  },
  {
    "name": "Georges Blanc",
    "url": "https://restaurant.michelin.fr/2d3ergs/georges-blanc-vonnas",
    "address": {
      "street": "1 rte de Clères",
      "postalCode": "76690",
      "city": "Frichemesnil"
    }
  },
  {
    "name": "Auberge de la Tour",
    "url": "https://restaurant.michelin.fr/aewyhv0/auberge-de-la-tour-marcoles",
    "address": {
      "street": "3 r.Berryer",
      "postalCode": "75008",
      "city": "Paris"
    }
  },
  {
    "name": "L'Amaryllis",
    "url": "https://restaurant.michelin.fr/294rtmv/lamaryllis-saint-remy",
    "address": {
      "street": "64 Rue Gambetta",
      "postalCode": "14800",
      "city": "DEAUVILLE"
    }
  },
  {
    "name": "Hostellerie Jérôme",
    "url": "https://restaurant.michelin.fr/2b5e0ez/hostellerie-jerome-la-turbie",
    "address": {
      "street": "6 bd Carnot",
      "postalCode": "06560",
      "city": "Valbonne"
    }
  },
  {
    "name": "Le Millénaire",
    "url": "https://restaurant.michelin.fr/2ank1c1/le-millenaire-reims",
    "address": {
      "street": "chemin Ttalienea",
      "postalCode": "64210",
      "city": "Bidart"
    }
  },
  {
    "name": "Manoir de la Boulaie",
    "url": "https://restaurant.michelin.fr/2a3ey4n/manoir-de-la-boulaie-haute-goulaine",
    "address": {
      "street": "20 rue Rennequin",
      "postalCode": "75017",
      "city": "Paris"
    }
  },
  {
    "name": "Le Relais des Moines",
    "url": "https://restaurant.michelin.fr/28qae64/le-relais-des-moines-les-arcs",
    "address": {
      "street": "8 Rue de Dettwiller",
      "postalCode": "67700",
      "city": "Monswiller"
    }
  },
  {
    "name": "Cyril Attrazic",
    "url": "https://restaurant.michelin.fr/28rd58x/cyril-attrazic-aumont-aubrac",
    "address": {
      "street": "3 place Richard",
      "postalCode": "31320",
      "city": "Castanet-Tolosan"
    }
  },
  {
    "name": "Pont de l'Ouysse",
    "url": "https://restaurant.michelin.fr/29p8ja1/pont-de-louysse-lacave",
    "address": {
      "street": "6 r. du Mont-Joly",
      "postalCode": "39100",
      "city": "Sampans"
    }
  },
  {
    "name": "Les Hautes Roches",
    "url": "https://restaurant.michelin.fr/2cyg6yb/les-hautes-roches-rochecorbon",
    "address": {
      "street": "5, rue d'Alsace",
      "postalCode": "64200",
      "city": "Biarritz"
    }
  },
  {
    "name": "Auberge Tiegezh",
    "url": "https://restaurant.michelin.fr/34milgg2/auberge-tiegezh-guer",
    "address": {
      "street": "18 Grand-Place",
      "postalCode": "59670",
      "city": "Cassel"
    }
  },
  {
    "name": "Le Grand Cerf",
    "url": "https://restaurant.michelin.fr/2anw751/le-grand-cerf-montchenot",
    "address": {
      "street": "2 rue Xavier Tronc",
      "postalCode": "30128",
      "city": "Garons"
    }
  },
  {
    "name": "Le Jardin de Benjamin",
    "url": "https://restaurant.michelin.fr/xhr5bt96/le-jardin-de-benjamin-lorgues",
    "address": {
      "street": "29 Avenue du Quarante-Cinquième Parallèle",
      "postalCode": "26600",
      "city": "Pont-de-l'Isère"
    }
  },
  {
    "name": "La Grande Cascade",
    "url": "https://restaurant.michelin.fr/2af5lql/la-grande-cascade-paris-16",
    "address": {
      "street": "4 Grand'Rue",
      "postalCode": "47310",
      "city": "Moirax"
    }
  },
  {
    "name": "Villa Archange",
    "url": "https://restaurant.michelin.fr/2f4ok2n/villa-archange-le-cannet",
    "address": {
      "street": "20 les Quais",
      "postalCode": "22130",
      "city": "Plancoët"
    }
  },
  {
    "name": "Domaine des Hauts de Loire",
    "url": "https://restaurant.michelin.fr/2cedaza/domaine-des-hauts-de-loire-onzain",
    "address": {
      "street": "19 bd Brotteaux",
      "postalCode": "69006",
      "city": "Lyon"
    }
  },
  {
    "name": "La Gouesnière",
    "url": "https://restaurant.michelin.fr/2byuiv7/la-gouesniere-saint-meloir-des-ondes",
    "address": {
      "street": "19 pl. Mgr-Tissier",
      "postalCode": "51000",
      "city": "Châlons-en-Champagne"
    }
  },
  {
    "name": "MaSa",
    "url": "https://restaurant.michelin.fr/2enx3bmn/masa-boulogne-billancourt",
    "address": {
      "street": "1 r. de Bas",
      "postalCode": "50560",
      "city": "Blainville-sur-Mer"
    }
  },
  {
    "name": "Le Pré du Moulin",
    "url": "https://restaurant.michelin.fr/2a6bp6b/le-pre-du-moulin-serignan-du-comtat",
    "address": {
      "street": "25 r. L.-Vivent",
      "postalCode": "47000",
      "city": "Agen"
    }
  },
  {
    "name": "Villa René Lalique",
    "url": "https://restaurant.michelin.fr/t645yf86/villa-rene-lalique-wingen-sur-moder",
    "address": {
      "street": "41 av. Gabriel",
      "postalCode": "75008",
      "city": "Paris"
    }
  },
  {
    "name": "Domaine de Rochevilaine",
    "url": "https://restaurant.michelin.fr/2bij0t1/domaine-de-rochevilaine-billiers",
    "address": {
      "street": "Place du Marche au Bois",
      "postalCode": "33330",
      "city": "Saint Emilion"
    }
  },
  {
    "name": "La Villa Madie",
    "url": "https://restaurant.michelin.fr/2eb50c1n/la-villa-madie-cassis",
    "address": {
      "street": "19 Rue des Têtes",
      "postalCode": "68000",
      "city": "Colmar"
    }
  },
  {
    "name": "Château de Sully",
    "url": "https://restaurant.michelin.fr/2bgynqb/chateau-de-sully-sully",
    "address": {
      "street": "1 Rue Alsace-Lorraine",
      "postalCode": "89100",
      "city": "Sens"
    }
  },
  {
    "name": "1912",
    "url": "https://restaurant.michelin.fr/cns0apa3/1912-trouville-sur-mer",
    "address": {
      "street": "7 rue du Lavoir",
      "postalCode": "21520",
      "city": "Courban"
    }
  },
  {
    "name": "La Marine",
    "url": "https://restaurant.michelin.fr/2bgh04f/la-marine-carteret",
    "address": {
      "street": "chemin de Notre-Dame-de-la-Serra",
      "postalCode": "20260",
      "city": "Calvi"
    }
  },
  {
    "name": "Azimut",
    "url": "https://restaurant.michelin.fr/2elahg3/azimut-le-praz",
    "address": {
      "street": "",
      "postalCode": "54300",
      "city": "Lunéville"
    }
  },
  {
    "name": "Garance",
    "url": "https://restaurant.michelin.fr/3ffpat6p/garance-paris-07",
    "address": {
      "street": "32 av. Beau Soleil",
      "postalCode": "64200",
      "city": "Biarritz"
    }
  },
  {
    "name": "Le Grand Restaurant - Jean-François Piège",
    "url": "https://restaurant.michelin.fr/u5aaw2ah/le-grand-restaurant-jean-francois-piege-paris-08",
    "address": {
      "street": "1 Place Notre-Dame",
      "postalCode": "69009",
      "city": "Lyon 09"
    }
  },
  {
    "name": "Rodolphe",
    "url": "https://restaurant.michelin.fr/j9cof0s1/rodolphe-rouen",
    "address": {
      "street": "944 av. de la République",
      "postalCode": "59700",
      "city": "Marcq-en-Barœul"
    }
  },
  {
    "name": "L'Émulsion",
    "url": "https://restaurant.michelin.fr/5jdkm0u/lemulsion-saint-alban-de-roche",
    "address": {
      "street": "Marina di Santa Giulia",
      "postalCode": "20137",
      "city": "Porto-Vecchio"
    }
  },
  {
    "name": "Le Clos St-Pierre",
    "url": "https://restaurant.michelin.fr/2aqst5c/le-clos-st-pierre-saint-pons",
    "address": {
      "street": "Le Plâtre-Durand",
      "postalCode": "71570",
      "city": "Saint-Amour-Bellevue"
    }
  },
  {
    "name": "Le Pousse-Pied",
    "url": "https://restaurant.michelin.fr/376ocf6f/le-pousse-pied-la-tranche-sur-mer",
    "address": {
      "street": "22 Rue André Fiquet",
      "postalCode": "76540",
      "city": "Valmont"
    }
  },
  {
    "name": "Garopapilles",
    "url": "https://restaurant.michelin.fr/3wsi04j3/garopapilles-bordeaux",
    "address": {
      "street": "8 place Cupillard",
      "postalCode": "25130",
      "city": "VILLERS-LE-LAC"
    }
  },
  {
    "name": "Auberge du Paradis",
    "url": "https://restaurant.michelin.fr/2armsjm/auberge-du-paradis-platre-durand",
    "address": {
      "street": "60 r. Garibaldi",
      "postalCode": "69006",
      "city": "Lyon"
    }
  },
  {
    "name": "Le Pavillon",
    "url": "https://restaurant.michelin.fr/2b3t8kh/le-pavillon-le-touquet-paris-plage",
    "address": {
      "street": "D901",
      "postalCode": "12320",
      "city": "Conques"
    }
  },
  {
    "name": "Racine",
    "url": "https://restaurant.michelin.fr/eiak4cnv/racine-reims",
    "address": {
      "street": "r. de la Combe",
      "postalCode": "84220",
      "city": "Gordes"
    }
  },
  {
    "name": "Château de Vauchoux",
    "url": "https://restaurant.michelin.fr/2alwjjs/chateau-de-vauchoux-vauchoux",
    "address": {
      "street": "1 imp. du Vieux-Bourg",
      "postalCode": "35760",
      "city": "Saint-Grégoire"
    }
  },
  {
    "name": "Le Marcq",
    "url": "https://restaurant.michelin.fr/2dkifdh/le-marcq-marcq-en-baroeul",
    "address": {
      "street": "Plage de Bouillabaisse",
      "postalCode": "83990",
      "city": "Saint-Tropez"
    }
  },
  {
    "name": "U Santa Marina",
    "url": "https://restaurant.michelin.fr/2e7dmcj/u-santa-marina-porto-vecchio",
    "address": {
      "street": "7-9 rue Joseph Dufour",
      "postalCode": "71000",
      "city": "Mâcon"
    }
  },
  {
    "name": "Pèir",
    "url": "https://restaurant.michelin.fr/r9fvmyyv/peir-gordes",
    "address": {
      "street": "114 r. Fg St-Honoré",
      "postalCode": "75008",
      "city": "Paris 08"
    }
  },
  {
    "name": "Palégrié",
    "url": "https://restaurant.michelin.fr/2d2itah0/palegrie-correncon-en-vercors",
    "address": {
      "street": "place du Slalom",
      "postalCode": "73440",
      "city": "VAL THORENS"
    }
  },
  {
    "name": "La Table by La Villa",
    "url": "https://restaurant.michelin.fr/299w7ls/la-table-la-villa-calvi",
    "address": {
      "street": "52 r. Royale",
      "postalCode": "47270",
      "city": "Puymirol"
    }
  },
  {
    "name": "Relais Louis XIII",
    "url": "https://restaurant.michelin.fr/2a92anu/relais-louis-xiii-paris-06",
    "address": {
      "street": "8 avenue Dutuit",
      "postalCode": "75008",
      "city": "Paris"
    }
  },
  {
    "name": "Rackham",
    "url": "https://restaurant.michelin.fr/2cndbvx/rackham-roscoff",
    "address": {
      "street": "route du Reginu",
      "postalCode": "20226",
      "city": "Belgodère"
    }
  },
  {
    "name": "La Table Breizh Café",
    "url": "https://restaurant.michelin.fr/2f8ln9w/la-table-breizh-cafe-cancale",
    "address": {
      "street": "5 place du Clocher",
      "postalCode": "33330",
      "city": "Saint-Emilion"
    }
  },
  {
    "name": "La Grignotière",
    "url": "https://restaurant.michelin.fr/3tkmico/la-grignotiere-raismes",
    "address": {
      "street": "353 av. de Verdun",
      "postalCode": "84300",
      "city": "Cavaillon"
    }
  },
  {
    "name": "Le Musigny",
    "url": "https://restaurant.michelin.fr/3yjthyc/le-musigny-valenciennes",
    "address": {
      "street": "Chemin Rural de Manigod au Col de la Croix Fry",
      "postalCode": "74230",
      "city": "Manigod"
    }
  },
  {
    "name": "1920",
    "url": "https://restaurant.michelin.fr/3409276/1920-megeve",
    "address": {
      "street": "3100 route de Bagnols-en-Forêt",
      "postalCode": "83440",
      "city": "Tourrettes"
    }
  },
  {
    "name": "Copenhague",
    "url": "https://restaurant.michelin.fr/2916876/copenhague-paris-08",
    "address": {
      "street": "3 pl. Camille-Hostein",
      "postalCode": "33270",
      "city": "BOULIAC"
    }
  },
  {
    "name": "La Cachette",
    "url": "https://restaurant.michelin.fr/2dyaa0w/la-cachette-valence",
    "address": {
      "street": "Avenue des Templiers",
      "postalCode": "06140",
      "city": "Vence"
    }
  },
  {
    "name": "La Vague d'Or",
    "url": "https://restaurant.michelin.fr/2csqkr7/la-vague-dor-saint-tropez",
    "address": {
      "street": "D 33",
      "postalCode": "21360",
      "city": "La Bussière-sur-Ouche"
    }
  },
  {
    "name": "Le Bec au Cauchois",
    "url": "https://restaurant.michelin.fr/2b6gbtl/le-bec-au-cauchois-valmont",
    "address": {
      "street": "17 rue de Chambord",
      "postalCode": "41350",
      "city": "Montlivault"
    }
  },
  {
    "name": "La Matelote",
    "url": "https://restaurant.michelin.fr/28yvb9u/la-matelote-boulogne-sur-mer",
    "address": {
      "street": "19 pl. Ch.-de-Gaulle",
      "postalCode": "64220",
      "city": "Saint-Jean-Pied-de-Port"
    }
  },
  {
    "name": "Alan Geaam",
    "url": "https://restaurant.michelin.fr/3045466/alan-geaam-paris-16",
    "address": {
      "street": "8-10 r. des Croisiers",
      "postalCode": "14000",
      "city": "Caen"
    }
  },
  {
    "name": "L'Atelier du Peintre",
    "url": "https://restaurant.michelin.fr/2ewn3lj/latelier-du-peintre-colmar",
    "address": {
      "street": "618 Route des Tournelles",
      "postalCode": "73370",
      "city": "Le Bourget-du-Lac"
    }
  },
  {
    "name": "Le France",
    "url": "https://restaurant.michelin.fr/2d32mvv/le-france-villers-le-lac",
    "address": {
      "street": "6 r. des Chanoines",
      "postalCode": "67860",
      "city": "Rhinau"
    }
  },
  {
    "name": "Nakatani",
    "url": "https://restaurant.michelin.fr/3x81832/nakatani-paris-07",
    "address": {
      "street": "1 r. des Cordeliers",
      "postalCode": "32100",
      "city": "Condom"
    }
  },
  {
    "name": "Stéphane Tournié - Les Jardins de l'Opéra",
    "url": "https://restaurant.michelin.fr/2b3631b/stephane-tournie-les-jardins-de-lopera-toulouse",
    "address": {
      "street": "corniche du Liouquet",
      "postalCode": "13600",
      "city": "La Ciotat"
    }
  },
  {
    "name": "La Table",
    "url": "https://restaurant.michelin.fr/ua271jkd/la-table-lille",
    "address": {
      "street": "Cheval Blanc Courchevel - Le Jardin Alpin",
      "postalCode": "73120",
      "city": "Courchevel 1850"
    }
  },
  {
    "name": "Meurin",
    "url": "https://restaurant.michelin.fr/2dyfstx/meurin-busnes",
    "address": {
      "street": "13 Avenue des Mateirons",
      "postalCode": "74500",
      "city": "Évian-les-Bains"
    }
  },
  {
    "name": "La Grand'Vigne",
    "url": "https://restaurant.michelin.fr/28yhuxy/la-grandvigne-martillac",
    "address": {
      "street": "173 r. Cuvier",
      "postalCode": "69006",
      "city": "Lyon"
    }
  },
  {
    "name": "Maison Kieny",
    "url": "https://restaurant.michelin.fr/2a22p1u/maison-kieny-riedisheim",
    "address": {
      "street": "91 r. de Grenelle",
      "postalCode": "75007",
      "city": "Paris"
    }
  },
  {
    "name": "Domaine des Séquoias",
    "url": "https://restaurant.michelin.fr/28zo6i3/domaine-des-sequoias-ruy",
    "address": {
      "street": "LE PONT D ALLEYRAS",
      "postalCode": "43580",
      "city": "Alleyras"
    }
  },
  {
    "name": "L'Auberge des Glazicks",
    "url": "https://restaurant.michelin.fr/2akhln2/lauberge-des-glazicks-plomodiern",
    "address": {
      "street": "79 rue St-Dominique",
      "postalCode": "75007",
      "city": "Paris"
    }
  },
  {
    "name": "Le Meurice Alain Ducasse",
    "url": "https://restaurant.michelin.fr/2a7d9c1/le-meurice-alain-ducasse-paris-01",
    "address": {
      "street": "86 quai de Loire",
      "postalCode": "37210",
      "city": "Rochecorbon"
    }
  },
  {
    "name": "Lasserre",
    "url": "https://restaurant.michelin.fr/2abcqvg/lasserre-paris-08",
    "address": {
      "street": "St-Jean-Lespinasse",
      "postalCode": "46400",
      "city": "Saint-Céré"
    }
  },
  {
    "name": "Helen",
    "url": "https://restaurant.michelin.fr/3o59i9b/helen-paris-08",
    "address": {
      "street": "55 Rue de Versailles",
      "postalCode": "92410",
      "city": "VILLE-D'AVRAY"
    }
  },
  {
    "name": "Girardin",
    "url": "https://restaurant.michelin.fr/xha7r0xl/girardin-colmar",
    "address": {
      "street": "rte de Port-Vendres",
      "postalCode": "66190",
      "city": "Collioure"
    }
  },
  {
    "name": "La Table des Merville",
    "url": "https://restaurant.michelin.fr/2b3ktxc/la-table-des-merville-castanet-tolosan",
    "address": {
      "street": "6-8 rue Duphot",
      "postalCode": "75001",
      "city": "Paris 01"
    }
  },
  {
    "name": "Le Vivarais",
    "url": "https://restaurant.michelin.fr/2fay1do/le-vivarais-vals-les-bains",
    "address": {
      "street": "33 Avenue George V",
      "postalCode": "75008",
      "city": "Paris"
    }
  },
  {
    "name": "Michel Chabran - La Grande Table",
    "url": "https://restaurant.michelin.fr/2d0la2d/michel-chabran-la-grande-table-pont-de-lisere",
    "address": {
      "street": "31 Nouvelle-Place",
      "postalCode": "18300",
      "city": "Sancerre"
    }
  },
  {
    "name": "L'Odas",
    "url": "https://restaurant.michelin.fr/33tyod0j/lodas-rouen",
    "address": {
      "street": "1 Rue de Sainte-Eugénie",
      "postalCode": "66720",
      "city": "Montner"
    }
  },
  {
    "name": "Pic",
    "url": "https://restaurant.michelin.fr/2d0hddd/pic-valence",
    "address": {
      "street": "D49",
      "postalCode": "14430",
      "city": "Beuvron-en-Auge"
    }
  },
  {
    "name": "Auberge du Cheval Blanc",
    "url": "https://restaurant.michelin.fr/29qf1y7/auberge-du-cheval-blanc-lembach",
    "address": {
      "street": "79 rue de la Tour",
      "postalCode": "75116",
      "city": "Paris"
    }
  },
  {
    "name": "Jérôme Brochot",
    "url": "https://restaurant.michelin.fr/29zgkr3/jerome-brochot-montceau-les-mines",
    "address": {
      "street": "22 Quai des Bateliers",
      "postalCode": "67000",
      "city": "Strasbourg"
    }
  },
  {
    "name": "La Passagère",
    "url": "https://restaurant.michelin.fr/29odhbw/la-passagere-juan-les-pins",
    "address": {
      "street": "81 Boulevard de Gigaro",
      "postalCode": "83420",
      "city": "La Croix-Valmer"
    }
  },
  {
    "name": "Le St-Placide",
    "url": "https://restaurant.michelin.fr/2av98t5/le-st-placide-saint-malo",
    "address": {
      "street": "11 r. des Franciscains",
      "postalCode": "68100",
      "city": "Mulhouse"
    }
  },
  {
    "name": "Le Parc Les Crayères",
    "url": "https://restaurant.michelin.fr/2clh5yg/le-parc-les-crayeres-reims",
    "address": {
      "street": "Le Moulin de Malfourat",
      "postalCode": "24240",
      "city": "Monbazillac"
    }
  },
  {
    "name": "L'Atelier de Jean-Luc Rabanel",
    "url": "https://restaurant.michelin.fr/2e06dui/latelier-de-jean-luc-rabanel-arles",
    "address": {
      "street": "5 rue du Coq-Héron",
      "postalCode": "75001",
      "city": "Paris 01"
    }
  },
  {
    "name": "L'Impertinent",
    "url": "https://restaurant.michelin.fr/h2j2em3/limpertinent-biarritz",
    "address": {
      "street": "25 avenue Montaigne",
      "postalCode": "75008",
      "city": "Paris"
    }
  },
  {
    "name": "Le Figuier de St-Esprit",
    "url": "https://restaurant.michelin.fr/2ejmich/le-figuier-de-st-esprit-antibes",
    "address": {
      "street": "43 Avenue du Général Leclerc",
      "postalCode": "74200",
      "city": "Thonon-les-Bains"
    }
  },
  {
    "name": "Le Farçon",
    "url": "https://restaurant.michelin.fr/2dczscn/le-farcon-la-tania",
    "address": {
      "street": "chemin de Gramont",
      "postalCode": "31770",
      "city": "Colomiers"
    }
  },
  {
    "name": "La Maison d'à Côté",
    "url": "https://restaurant.michelin.fr/2dxwn73/la-maison-da-cote-montlivault",
    "address": {
      "street": "5 avenue Expilly",
      "postalCode": "07600",
      "city": "VALS-LES-BAINS"
    }
  },
  {
    "name": "Kasbür",
    "url": "https://restaurant.michelin.fr/2az3rad/kasbur-monswiller",
    "address": {
      "street": "r. Loucheur",
      "postalCode": "76550",
      "city": "Offranville"
    }
  },
  {
    "name": "1131",
    "url": "https://restaurant.michelin.fr/2e4epe8/1131-la-bussiere-sur-ouche",
    "address": {
      "street": "32 Grande-Rue",
      "postalCode": "25160",
      "city": "Malbuisson"
    }
  },
  {
    "name": "Il Cortile",
    "url": "https://restaurant.michelin.fr/2dcdnms/il-cortile-mulhouse",
    "address": {
      "street": "5 r. Rameau",
      "postalCode": "75002",
      "city": "Paris"
    }
  },
  {
    "name": "Le Saison",
    "url": "https://restaurant.michelin.fr/2ao631n/le-saison-saint-gregoire",
    "address": {
      "street": "21 rue Royale",
      "postalCode": "74000",
      "city": "Annecy"
    }
  },
  {
    "name": "Le Domaine de la Corniche",
    "url": "https://restaurant.michelin.fr/2cmxk0v/le-domaine-de-la-corniche-rolleboise",
    "address": {
      "street": "D126",
      "postalCode": "56000",
      "city": "Vannes"
    }
  },
  {
    "name": "Lamartine",
    "url": "https://restaurant.michelin.fr/28zi7ln/lamartine-le-bourget-du-lac",
    "address": {
      "street": "1312 av. Raymond-Poincaré",
      "postalCode": "06360",
      "city": "EZE-BORD-DE-MER"
    }
  },
  {
    "name": "Jérôme Nutile - Le Mas de Boudan",
    "url": "https://restaurant.michelin.fr/cne1oxue/jerome-nutile-le-mas-de-boudan-nimes",
    "address": {
      "street": "42 rue Daubenton",
      "postalCode": "75005",
      "city": "Paris 05"
    }
  },
  {
    "name": "Le Petit Hôtel du Grand Large",
    "url": "https://restaurant.michelin.fr/2dy7rqn/le-petit-hotel-du-grand-large-portivy",
    "address": {
      "street": "r. F. -Mistral",
      "postalCode": "13122",
      "city": "Ventabren"
    }
  },
  {
    "name": "La Promenade",
    "url": "https://restaurant.michelin.fr/2ajy6gr/la-promenade-le-petit-pressigny",
    "address": {
      "street": "9 r. de l'Hôtel-de-Ville",
      "postalCode": "39600",
      "city": "Arbois"
    }
  },
  {
    "name": "Le Raisin",
    "url": "https://restaurant.michelin.fr/2al9714/le-raisin-pont-de-vaux",
    "address": {
      "street": "71 A rte du Montil",
      "postalCode": "17920",
      "city": "Breuillet"
    }
  },
  {
    "name": "Le Patio",
    "url": "https://restaurant.michelin.fr/28q4ohd/le-patio-arcachon",
    "address": {
      "street": "Domaine de Manville - D27",
      "postalCode": "13520",
      "city": "Les Baux-de-Provence"
    }
  },
  {
    "name": "Le Colombier",
    "url": "https://restaurant.michelin.fr/29d8fg4/le-colombier-offranville",
    "address": {
      "street": "32 Grande-Rue",
      "postalCode": "26000",
      "city": "Valence"
    }
  },
  {
    "name": "Le Manoir du Lys",
    "url": "https://restaurant.michelin.fr/2bfnmbt/le-manoir-du-lys-bagnoles-de-lorne-normandie",
    "address": {
      "street": "9 pl. de la Madeleine",
      "postalCode": "75008",
      "city": "Paris 08"
    }
  },
  {
    "name": "Vieux Pont",
    "url": "https://restaurant.michelin.fr/28vap07/vieux-pont-belcastel",
    "address": {
      "street": "16 rue du Phare",
      "postalCode": "29120",
      "city": "Sainte-Marine"
    }
  },
  {
    "name": "Le Belvédère",
    "url": "https://restaurant.michelin.fr/2d4rcim/le-belvedere-bozouls",
    "address": {
      "street": "Place de la Fontaine",
      "postalCode": "15220",
      "city": "MARCOLES"
    }
  },
  {
    "name": "David Toutain",
    "url": "https://restaurant.michelin.fr/2ei5hub/david-toutain-paris-07",
    "address": {
      "street": "8 r. des Dentelles",
      "postalCode": "67000",
      "city": "Strasbourg"
    }
  },
  {
    "name": "L'Atlantide 1874 - Maison Guého",
    "url": "https://restaurant.michelin.fr/2a32200/latlantide-1874-maison-gueho-nantes",
    "address": {
      "street": "15 pl. de la République",
      "postalCode": "41100",
      "city": "Vendôme"
    }
  },
  {
    "name": "Tour d'Argent",
    "url": "https://restaurant.michelin.fr/2a8xf2a/tour-dargent-paris-05",
    "address": {
      "street": "Quartier La Ville",
      "postalCode": "05350",
      "city": "SAINT-VERAN"
    }
  },
  {
    "name": "Le Moulin d'Alotz",
    "url": "https://restaurant.michelin.fr/28x0rz3/le-moulin-dalotz-alotz",
    "address": {
      "street": "rte d'Apt",
      "postalCode": "84400",
      "city": "Lagarde-d'Apt"
    }
  },
  {
    "name": "Le Cerf",
    "url": "https://restaurant.michelin.fr/2c74pw3/le-cerf-marlenheim",
    "address": {
      "street": "90 Route des Chenus",
      "postalCode": "73120",
      "city": "Courchevel 1850"
    }
  },
  {
    "name": "Le Pily",
    "url": "https://restaurant.michelin.fr/2eh8fjc/le-pily-cherbourg-en-cotentin",
    "address": {
      "street": "1 rue du Prince Noir",
      "postalCode": "33310",
      "city": "Lormont"
    }
  },
  {
    "name": "Château du Mont Joly",
    "url": "https://restaurant.michelin.fr/2ejhn11/chateau-du-mont-joly-sampans",
    "address": {
      "street": "route des chateaux",
      "postalCode": "33250",
      "city": "Pauillac"
    }
  },
  {
    "name": "Étincelles - La Gentilhommière",
    "url": "https://restaurant.michelin.fr/2ejolq7/etincelles-la-gentilhommiere-sainte-sabine",
    "address": {
      "street": "19 r. de la Grenouillère",
      "postalCode": "62170",
      "city": "La Madelaine-sous-Montreuil"
    }
  },
  {
    "name": "L'Aubergade",
    "url": "https://restaurant.michelin.fr/28olvn9/laubergade-dury",
    "address": {
      "street": "1 Grande-Rue",
      "postalCode": "78720",
      "city": "Dampierre-en-Yvelines"
    }
  },
  {
    "name": "La Table des Cordeliers",
    "url": "https://restaurant.michelin.fr/2d7x1hk/la-table-des-cordeliers-condom",
    "address": {
      "street": "133 av. des Champs-Élysées",
      "postalCode": "75008",
      "city": "Paris"
    }
  },
  {
    "name": "Le Jules Verne",
    "url": "https://restaurant.michelin.fr/2aa3qhg/le-jules-verne-paris-07",
    "address": {
      "street": "chemin de Smith-Haut-Lafitte",
      "postalCode": "33650",
      "city": "Martillac"
    }
  },
  {
    "name": "Le Prieuré",
    "url": "https://restaurant.michelin.fr/28od0rp/le-prieure-ambierle",
    "address": {
      "street": "rte du golf",
      "postalCode": "74160",
      "city": "Bossey"
    }
  },
  {
    "name": "Mon Plaisir",
    "url": "https://restaurant.michelin.fr/2d6m1yv/mon-plaisir-chamesol",
    "address": {
      "street": "26 rampe Cauchoise",
      "postalCode": "76000",
      "city": "Rouen"
    }
  },
  {
    "name": "Au 14 Février",
    "url": "https://restaurant.michelin.fr/2f8f1gn/au-14-fevrier-lyon-05",
    "address": {
      "street": "805 av. du Gén.-de-Gaulle",
      "postalCode": "59910",
      "city": "Bondues"
    }
  },
  {
    "name": "Côté Jardin",
    "url": "https://restaurant.michelin.fr/29jyv6a/cote-jardin-gien",
    "address": {
      "street": "43 av. de la Gare",
      "postalCode": "24200",
      "city": "Sarlat-la-Canéda"
    }
  },
  {
    "name": "Jérémy Galvan",
    "url": "https://restaurant.michelin.fr/3plxd2e/jeremy-galvan-lyon-05",
    "address": {
      "street": "1318 r. du Mont-Noir",
      "postalCode": "59299",
      "city": "Boeschepe"
    }
  },
  {
    "name": "Shang Palace",
    "url": "https://restaurant.michelin.fr/2fcezsf205/shang-palace-paris-16",
    "address": {
      "street": "5 chemin de l'Etang du Moulin",
      "postalCode": "25210",
      "city": "Bonnétage"
    }
  },
  {
    "name": "Le Sénéchal",
    "url": "https://restaurant.michelin.fr/2cv1ygx/le-senechal-sauveterre-de-rouergue",
    "address": {
      "street": "14 av. Alphonse Boulingre",
      "postalCode": "77860",
      "city": "Couilly-Pont-aux-Dames"
    }
  },
  {
    "name": "Frédéric Simonin",
    "url": "https://restaurant.michelin.fr/2f8857v/frederic-simonin-paris-17",
    "address": {
      "street": "5 Rue de Poissy",
      "postalCode": "75005",
      "city": "Paris"
    }
  },
  {
    "name": "L'Amphitryon",
    "url": "https://restaurant.michelin.fr/29saut6/lamphitryon-lorient",
    "address": {
      "street": "76 promenade de Cayola",
      "postalCode": "85180",
      "city": "Talmont-Saint-Hilaire"
    }
  },
  {
    "name": "Loiseau des Ducs",
    "url": "https://restaurant.michelin.fr/2jd4ivca/loiseau-des-ducs-dijon",
    "address": {
      "street": "10 av. de New-York",
      "postalCode": "75116",
      "city": "Paris 16"
    }
  },
  {
    "name": "Maison Rostang",
    "url": "https://restaurant.michelin.fr/2afdah0/maison-rostang-paris-17",
    "address": {
      "street": "17 rue de Beaujolais",
      "postalCode": "75001",
      "city": "Paris"
    }
  },
  {
    "name": "Flaveur",
    "url": "https://restaurant.michelin.fr/2exgwy4/flaveur-nice",
    "address": {
      "street": "7 pl. du Chapitre",
      "postalCode": "30400",
      "city": "Villeneuve-lès-Avignon"
    }
  },
  {
    "name": "Le Domaine du Colombier",
    "url": "https://restaurant.michelin.fr/2ca9g6u/le-domaine-du-colombier-malataverne",
    "address": {
      "street": "33 av. Général-Leclerc",
      "postalCode": "92100",
      "city": "Boulogne-Billancourt"
    }
  },
  {
    "name": "Les Terraillers",
    "url": "https://restaurant.michelin.fr/28x308q/les-terraillers-biot",
    "address": {
      "street": "D999",
      "postalCode": "63490",
      "city": "Sarpoil"
    }
  },
  {
    "name": "Les Rosiers",
    "url": "https://restaurant.michelin.fr/2epi2a4/les-rosiers-biarritz",
    "address": {
      "street": "22 r. du Cdt-Drogou",
      "postalCode": "29200",
      "city": "Brest"
    }
  },
  {
    "name": "Jean-Luc Tartarin",
    "url": "https://restaurant.michelin.fr/2enmc29/jean-luc-tartarin-le-havre",
    "address": {
      "street": "273 r. de la Madelon",
      "postalCode": "73120",
      "city": "Courchevel-Saint-Bon"
    }
  },
  {
    "name": "Les Explorateurs",
    "url": "https://restaurant.michelin.fr/ui89zrwk/les-explorateurs-val-thorens",
    "address": {
      "street": "Anse de Maldormé - Corniche J. F. Kennedy",
      "postalCode": "13007",
      "city": "Marseille 07"
    }
  },
  {
    "name": "Le Jasmin",
    "url": "https://restaurant.michelin.fr/u6v6rb42/le-jasmin-saint-sylvestre-sur-lot",
    "address": {
      "street": "bd C. Rebuffel",
      "postalCode": "06250",
      "city": "Mougins"
    }
  },
  {
    "name": "La Table de l'Espadon",
    "url": "https://restaurant.michelin.fr/yhoi9vry/la-table-de-lespadon-paris-01",
    "address": {
      "street": "41 rue de Lille",
      "postalCode": "75007",
      "city": "Paris 07"
    }
  },
  {
    "name": "Alexandre",
    "url": "https://restaurant.michelin.fr/2a57m2j/alexandre-garons",
    "address": {
      "street": "489 av. Bollée",
      "postalCode": "72000",
      "city": "Le Mans"
    }
  },
  {
    "name": "L'Ambroisie",
    "url": "https://restaurant.michelin.fr/2a8d13e/lambroisie-paris-04",
    "address": {
      "street": "25 Rue Gubernatis",
      "postalCode": "06000",
      "city": "Nice"
    }
  },
  {
    "name": "Chapelle Saint-Martin",
    "url": "https://restaurant.michelin.fr/2c4rgah/chapelle-saint-martin-nieul",
    "address": {
      "street": "3 bd de l'Esplanade",
      "postalCode": "34150",
      "city": "Gignac"
    }
  },
  {
    "name": "Origine",
    "url": "https://restaurant.michelin.fr/3xmi14j/origine-rouen",
    "address": {
      "street": "La Bergerie",
      "postalCode": "49380",
      "city": "Champ-sur-Layon"
    }
  },
  {
    "name": "Le Belrose",
    "url": "https://restaurant.michelin.fr/2ct3bc6/le-belrose-bertaud",
    "address": {
      "street": "rte de Ste-Cécile-les-Vignes",
      "postalCode": "84830",
      "city": "Sérignan-du-Comtat"
    }
  },
  {
    "name": "Les Prés d'Eugénie - Michel Guérard",
    "url": "https://restaurant.michelin.fr/29g9pvw/les-pres-deugenie-michel-guerard-eugenie-les-bains",
    "address": {
      "street": "Chemin de Gastelhur",
      "postalCode": "64200",
      "city": "Arcangues"
    }
  },
  {
    "name": "Épicure",
    "url": "https://restaurant.michelin.fr/2ab8pfp/epicure-paris-08",
    "address": {
      "street": "pl. de la Mairie",
      "postalCode": "06650",
      "city": "Le Rouret"
    }
  },
  {
    "name": "Les Jardins de l'Espadon",
    "url": "https://restaurant.michelin.fr/2a7bw8d/les-jardins-de-lespadon-paris-01",
    "address": {
      "street": "20 bd de la Tour-d'Auvergne",
      "postalCode": "35000",
      "city": "Rennes"
    }
  },
  {
    "name": "Maison Lameloise",
    "url": "https://restaurant.michelin.fr/2bnef6m/maison-lameloise-chagny",
    "address": {
      "street": "route du Sambuc",
      "postalCode": "13200",
      "city": "Arles"
    }
  },
  {
    "name": "La Bergerie",
    "url": "https://restaurant.michelin.fr/29nxch5/la-bergerie-sarpoil",
    "address": {
      "street": "rte de Villecroze",
      "postalCode": "83690",
      "city": "Tourtour"
    }
  },
  {
    "name": "Le Gindreau",
    "url": "https://restaurant.michelin.fr/2avrk5m/le-gindreau-saint-medard",
    "address": {
      "street": "",
      "postalCode": "83400",
      "city": "Hyères"
    }
  },
  {
    "name": "Penati al Baretto",
    "url": "https://restaurant.michelin.fr/9oo4cel/penati-al-baretto-paris-08",
    "address": {
      "street": "9 r. Léopold-Robert",
      "postalCode": "75014",
      "city": "Paris"
    }
  },
  {
    "name": "Ar Men Du",
    "url": "https://restaurant.michelin.fr/2dgxug2/ar-men-du-nevez",
    "address": {
      "street": "rte de l'Abbaye de Sénanque",
      "postalCode": "84220",
      "city": "Gordes"
    }
  },
  {
    "name": "Atmosphères",
    "url": "https://restaurant.michelin.fr/28zmco9/atmospheres-le-bourget-du-lac",
    "address": {
      "street": "9-13 Rue du Général de Gaulle",
      "postalCode": "68240",
      "city": "Kaysersberg"
    }
  },
  {
    "name": "Le Grand Véfour",
    "url": "https://restaurant.michelin.fr/2a7edmf/le-grand-vefour-paris-01",
    "address": {
      "street": "44 r. du Bac",
      "postalCode": "75007",
      "city": "Paris"
    }
  },
  {
    "name": "La Galinette",
    "url": "https://restaurant.michelin.fr/2ajskia/la-galinette-perpignan",
    "address": {
      "street": "Lieu-dit Lalande",
      "postalCode": "47140",
      "city": "Saint-Sylvestre-sur-Lot"
    }
  },
  {
    "name": "Thierry Drapeau",
    "url": "https://restaurant.michelin.fr/2dnrb62/thierry-drapeau-saint-sulpice-le-verdon",
    "address": {
      "street": "62 r. Abbé-de-L'Epée",
      "postalCode": "33000",
      "city": "Bordeaux"
    }
  },
  {
    "name": "Hexagone",
    "url": "https://restaurant.michelin.fr/9yw7wqd3/hexagone-paris-16",
    "address": {
      "street": "11 Route Chemin-Neuf",
      "postalCode": "06410",
      "city": "Biot"
    }
  },
  {
    "name": "Auberge de Clochemerle",
    "url": "https://restaurant.michelin.fr/2dckc0s/auberge-de-clochemerle-vaux-en-beaujolais",
    "address": {
      "street": "2 rte de Gap",
      "postalCode": "05100",
      "city": "Briançon"
    }
  },
  {
    "name": "L'Amphitryon",
    "url": "https://restaurant.michelin.fr/2b3pf5k/lamphitryon-colomiers",
    "address": {
      "street": "",
      "postalCode": "24440",
      "city": "Sainte-Sabine"
    }
  },
  {
    "name": "Le Jardin des Plumes",
    "url": "https://restaurant.michelin.fr/omm63qr/le-jardin-des-plumes-giverny",
    "address": {
      "street": "30 r. du Printemps",
      "postalCode": "75017",
      "city": "Paris"
    }
  },
  {
    "name": "Assa",
    "url": "https://restaurant.michelin.fr/3m0pjn8/assa-blois",
    "address": {
      "street": "Carrefour de Longchamp",
      "postalCode": "75016",
      "city": "Paris"
    }
  },
  {
    "name": "La Ville Blanche",
    "url": "https://restaurant.michelin.fr/29pm63n/la-ville-blanche-rospez",
    "address": {
      "street": "53 passage des Panoramas",
      "postalCode": "75002",
      "city": "Paris"
    }
  },
  {
    "name": "Lou Cigalon-Maison Martin",
    "url": "https://restaurant.michelin.fr/41vsxiz/lou-cigalon-maison-martin-valbonne",
    "address": {
      "street": "52 Rue Tronchet",
      "postalCode": "69006",
      "city": "Lyon"
    }
  },
  {
    "name": "La Roya",
    "url": "https://restaurant.michelin.fr/2bsyl7y/la-roya-saint-florent",
    "address": {
      "street": "chemin des Fontanettes",
      "postalCode": "38121",
      "city": "Chonas-l'Amballan"
    }
  },
  {
    "name": "Le Prieuré",
    "url": "https://restaurant.michelin.fr/2d2wqpd/le-prieure-villeneuve-les-avignon",
    "address": {
      "street": "route de Ste-Roseline",
      "postalCode": "83460",
      "city": "Les Arcs"
    }
  },
  {
    "name": "La Robe",
    "url": "https://restaurant.michelin.fr/3ffqpazw/la-robe-montaigu",
    "address": {
      "street": "5 r. de l'Hermitage",
      "postalCode": "44100",
      "city": "Nantes"
    }
  },
  {
    "name": "Château Blanchard",
    "url": "https://restaurant.michelin.fr/ou4s65x/chateau-blanchard-chazelles-sur-lyon",
    "address": {
      "street": "461 chemin Peymeyan",
      "postalCode": "83440",
      "city": "Fayence"
    }
  },
  {
    "name": "Le Pêché Gourmand",
    "url": "https://restaurant.michelin.fr/9ngaiit/le-peche-gourmand-briancon",
    "address": {
      "street": "17 r. de la République",
      "postalCode": "64500",
      "city": "Saint-Jean-de-Luz"
    }
  },
  {
    "name": "La Fourchette du Printemps",
    "url": "https://restaurant.michelin.fr/2f4nbgd/la-fourchette-du-printemps-paris-17",
    "address": {
      "street": "Promenade de la Concurrence",
      "postalCode": "17000",
      "city": "La Rochelle"
    }
  },
  {
    "name": "À Contre Sens",
    "url": "https://restaurant.michelin.fr/3wc5nsy/contre-sens-caen",
    "address": {
      "street": "à la Pointe de Pen Lan",
      "postalCode": "56190",
      "city": "Billiers"
    }
  },
  {
    "name": "Table - Bruno Verjus",
    "url": "https://restaurant.michelin.fr/3ffvej5j/table-bruno-verjus-paris-12",
    "address": {
      "street": "7 Place de la Gare",
      "postalCode": "56380",
      "city": "Guer"
    }
  },
  {
    "name": "Auberge Le Prieuré",
    "url": "https://restaurant.michelin.fr/2dl7htu/auberge-le-prieure-moirax",
    "address": {
      "street": "11 r. de Paris",
      "postalCode": "50270",
      "city": "Barneville-Carteret"
    }
  },
  {
    "name": "Haut Bonheur de la Table",
    "url": "https://restaurant.michelin.fr/6274yuk/haut-bonheur-de-la-table-cassel",
    "address": {
      "street": "Route du Château",
      "postalCode": "46090",
      "city": "Mercuès"
    }
  },
  {
    "name": "L'Éveil des Sens",
    "url": "https://restaurant.michelin.fr/2f77d7t/leveil-des-sens-mayenne",
    "address": {
      "street": "35 Rue de Sélestat",
      "postalCode": "67210",
      "city": "Obernai"
    }
  },
  {
    "name": "Le Moulin des Quatre Saisons",
    "url": "https://restaurant.michelin.fr/29hrl09/le-moulin-des-quatre-saisons-la-fleche",
    "address": {
      "street": "133 av. des Champs-Élysées",
      "postalCode": "75008",
      "city": "Paris"
    }
  },
  {
    "name": "ES",
    "url": "https://restaurant.michelin.fr/27ym5i25/es-paris-07",
    "address": {
      "street": "Monnaie de Paris11 Quai de Conti",
      "postalCode": "75006",
      "city": "Paris"
    }
  },
  {
    "name": "Val d'Auge",
    "url": "https://restaurant.michelin.fr/29rcoot/val-dauge-bondues",
    "address": {
      "street": "42 Avenue Gabriel",
      "postalCode": "75008",
      "city": "Paris"
    }
  },
  {
    "name": "L'Alchémille",
    "url": "https://restaurant.michelin.fr/ua3c2rxf/lalchemille-kaysersberg-vignoble",
    "address": {
      "street": "pl. de l'Impératrice",
      "postalCode": "40320",
      "city": "Eugénie-les-Bains"
    }
  },
  {
    "name": "Le Sérac",
    "url": "https://restaurant.michelin.fr/2di661r/le-serac-saint-gervais-les-bains",
    "address": {
      "street": "33, Saint Martin du Fault",
      "postalCode": "87510",
      "city": "Nieul"
    }
  },
  {
    "name": "L'Essentiel",
    "url": "https://restaurant.michelin.fr/2dwdwxo/lessentiel-perigueux",
    "address": {
      "street": "Untermuhlthal",
      "postalCode": "57230",
      "city": "Baerenthal"
    }
  },
  {
    "name": "Brikéténia",
    "url": "https://restaurant.michelin.fr/2es4wcd/briketenia-guethary",
    "address": {
      "street": "34 Bis Place République",
      "postalCode": "72000",
      "city": "Le Mans"
    }
  },
  {
    "name": "Auberge du Vert Mont",
    "url": "https://restaurant.michelin.fr/13ppe4f4/auberge-du-vert-mont-boeschepe",
    "address": {
      "street": "9 route Nationale",
      "postalCode": "68230",
      "city": "Wihr-au-Val"
    }
  },
  {
    "name": "La Coquerie",
    "url": "https://restaurant.michelin.fr/9tuayn9/la-coquerie-sete",
    "address": {
      "street": "Route de la Plage de Palombaggia",
      "postalCode": "20137",
      "city": "Porto-Vecchio"
    }
  },
  {
    "name": "Le Favre d'Anne",
    "url": "https://restaurant.michelin.fr/dekdkvvj/le-favre-danne-angers",
    "address": {
      "street": "4 r. Beethoven",
      "postalCode": "75016",
      "city": "Paris"
    }
  },
  {
    "name": "Le Camélia",
    "url": "https://restaurant.michelin.fr/2agf0d1/le-camelia-bougival",
    "address": {
      "street": "44 bd Lahitolle",
      "postalCode": "18000",
      "city": "Bourges"
    }
  },
  {
    "name": "Le Village",
    "url": "https://restaurant.michelin.fr/2ahm97s/le-village-marly-le-roi",
    "address": {
      "street": "4 imp. Chenevottes",
      "postalCode": "21190",
      "city": "Chassagne-Montrachet"
    }
  },
  {
    "name": "La Table d'Eugène",
    "url": "https://restaurant.michelin.fr/2et2alx/la-table-deugene-paris-18",
    "address": {
      "street": "Château du Couffour",
      "postalCode": "15110",
      "city": "Chaudes-Aigues"
    }
  },
  {
    "name": "Le Bon Accueil",
    "url": "https://restaurant.michelin.fr/29v2jed/le-bon-accueil-malbuisson",
    "address": {
      "street": "7 Rue des Cigognes",
      "postalCode": "68770",
      "city": "Ammerschwihr"
    }
  },
  {
    "name": "La Rastègue",
    "url": "https://restaurant.michelin.fr/2dfjaik/la-rastegue-bormes-les-mimosas",
    "address": {
      "street": "4 Passage Maurice Lenfant",
      "postalCode": "76000",
      "city": "Rouen"
    }
  },
  {
    "name": "Aux Terrasses",
    "url": "https://restaurant.michelin.fr/2b44str/aux-terrasses-tournus",
    "address": {
      "street": "255 r. de la Forêt",
      "postalCode": "60600",
      "city": "Étouy"
    }
  },
  {
    "name": "Miraflores",
    "url": "https://restaurant.michelin.fr/2jcivvu3/miraflores-lyon-06",
    "address": {
      "street": "Rue de l'Eglise",
      "postalCode": "67770",
      "city": "Sessenheim"
    }
  },
  {
    "name": "Le Foch",
    "url": "https://restaurant.michelin.fr/2anjd1l/le-foch-reims",
    "address": {
      "street": "Route de Murs",
      "postalCode": "84220",
      "city": "Joucas"
    }
  },
  {
    "name": "Auberge du Dun",
    "url": "https://restaurant.michelin.fr/28z3n7r/auberge-du-dun-le-bourg-dun",
    "address": {
      "street": "Chemin des Cabanes",
      "postalCode": "84480",
      "city": "Bonnieux"
    }
  },
  {
    "name": "Le Park 45",
    "url": "https://restaurant.michelin.fr/2e74el7/le-park-45-cannes",
    "address": {
      "street": "2 pl. du Port",
      "postalCode": "16200",
      "city": "Bourg-Charente"
    }
  },
  {
    "name": "La Marande",
    "url": "https://restaurant.michelin.fr/2dcnkds/la-marande-montbellet",
    "address": {
      "street": "4 Route de Wissembourg",
      "postalCode": "67510",
      "city": "Lembach"
    }
  },
  {
    "name": "La Gloire",
    "url": "https://restaurant.michelin.fr/29yz8b5/la-gloire-montargis",
    "address": {
      "street": "33 Rue Malesherbes",
      "postalCode": "69006",
      "city": "Lyon 06"
    }
  },
  {
    "name": "Auberge St-Jean",
    "url": "https://restaurant.michelin.fr/2athka8/auberge-st-jean-saint-jean-de-blaignac",
    "address": {
      "street": "38 r. de l'Europe",
      "postalCode": "29840",
      "city": "Porspoder"
    }
  },
  {
    "name": "Pertinence",
    "url": "https://restaurant.michelin.fr/5sermc3/pertinence-paris-07",
    "address": {
      "street": "bd de la Cahotte",
      "postalCode": "14360",
      "city": "Trouville-sur-Mer"
    }
  },
  {
    "name": "Le Chateaubriand",
    "url": "https://restaurant.michelin.fr/2e6jtym/le-chateaubriand-paris-11",
    "address": {
      "street": "8 Rue des Grands Augustins",
      "postalCode": "75006",
      "city": "Paris"
    }
  },
  {
    "name": "Jérôme Feck",
    "url": "https://restaurant.michelin.fr/294k5c0/jerome-feck-chalons-en-champagne",
    "address": {
      "street": "71 Boulevard du Général-de-Gaulle",
      "postalCode": "06230",
      "city": "SAINT-JEAN-CAP-FERRAT"
    }
  },
  {
    "name": "Pierre Reboul",
    "url": "https://restaurant.michelin.fr/9pmxzh3/pierre-reboul-aix-en-provence",
    "address": {
      "street": "pl. Déesse-Hygie",
      "postalCode": "38410",
      "city": "Uriage-les-Bains"
    }
  },
  {
    "name": "Ken Kawasaki",
    "url": "https://restaurant.michelin.fr/ximkypex/ken-kawasaki-paris-18",
    "address": {
      "street": "39 Rue Lamarck",
      "postalCode": "75018",
      "city": "Paris"
    },
    "id": "276169",
    "isFound": true
  },
  {
    "name": "Le Skiff Club",
    "url": "https://restaurant.michelin.fr/2851256/le-skiff-club-la-teste-de-buch",
    "address": {
      "street": "223 RUE DU CHEF DE L'ILE Fedrun",
      "postalCode": "44720",
      "city": "Saint-Joachim"
    }
  },
  {
    "name": "Akrame",
    "url": "https://restaurant.michelin.fr/2851396/akrame-paris-08",
    "address": {
      "street": "29 r. Surcouf",
      "postalCode": "75007",
      "city": "Paris"
    }
  },
  {
    "name": "Le Grand Cap",
    "url": "https://restaurant.michelin.fr/2851511/le-grand-cap-leucate",
    "address": {
      "street": "149 Boulevard Saint-Germain",
      "postalCode": "75006",
      "city": "Paris"
    }
  },
  {
    "name": "Restaurant H",
    "url": "https://restaurant.michelin.fr/2851556/restaurant-h-paris-04",
    "address": {
      "street": "7 r. d'Aguesseau",
      "postalCode": "75008",
      "city": "Paris"
    }
  },
  {
    "name": "Sushi B",
    "url": "https://restaurant.michelin.fr/2852091/sushi-b-paris-02",
    "address": {
      "street": "2 promenade Jean-Jaurès",
      "postalCode": "31590",
      "city": "Verfeil"
    }
  },
  {
    "name": "Divellec",
    "url": "https://restaurant.michelin.fr/2852181/divellec-paris-07",
    "address": {
      "street": "1 Rue Schongauer",
      "postalCode": "68000",
      "city": "Colmar"
    }
  },
  {
    "name": "La Merise",
    "url": "https://restaurant.michelin.fr/3614676/la-merise-laubach",
    "address": {
      "street": "49 r. Verderel",
      "postalCode": "29250",
      "city": "Saint-Pol-de-Léon"
    }
  },
  {
    "name": "Jean Chauvel",
    "url": "https://restaurant.michelin.fr/3614956/jean-chauvel-boulogne-billancourt",
    "address": {
      "street": "4 r. des Grands-Augustins",
      "postalCode": "75006",
      "city": "Paris"
    }
  },
  {
    "name": "Montée",
    "url": "https://restaurant.michelin.fr/3615586/montee-paris-14",
    "address": {
      "street": "route des Iles Sanguinaires",
      "postalCode": "20000",
      "city": "Ajaccio"
    }
  },
  {
    "name": "L'Auberge de Bagatelle",
    "url": "https://restaurant.michelin.fr/3616226/lauberge-de-bagatelle-le-mans",
    "address": {
      "street": "10 Avenue d'Iéna",
      "postalCode": "75016",
      "city": "Paris 16"
    }
  },
  {
    "name": "Ima",
    "url": "https://restaurant.michelin.fr/3616751/ima-rennes",
    "address": {
      "street": "pl. de l'Étang",
      "postalCode": "84160",
      "city": "Cucuron"
    }
  },
  {
    "name": "Comice",
    "url": "https://restaurant.michelin.fr/3616836/comice-paris-16",
    "address": {
      "street": "64 Boulevard Henry Vasnier",
      "postalCode": "51100",
      "city": "Reims"
    }
  },
  {
    "name": "La Table d'Hôtes - Le Quatrième Mur",
    "url": "https://restaurant.michelin.fr/3623606/la-table-dhotes-le-quatrieme-mur-bordeaux",
    "address": {
      "street": "13 r. Gén. de Gaulle",
      "postalCode": "67730",
      "city": "La Vancelle"
    }
  },
  {
    "name": "Les Ducs de Lorraine",
    "url": "https://restaurant.michelin.fr/29fq33a/les-ducs-de-lorraine-epinal",
    "address": {
      "street": "14 r. de Courtonne",
      "postalCode": "14000",
      "city": "Caen"
    }
  },
  {
    "name": "La Table d'Uzès",
    "url": "https://restaurant.michelin.fr/1ss80t3t/la-table-duzes-uzes",
    "address": {
      "street": "6 pl. de la Mairie",
      "postalCode": "31130",
      "city": "Fonsegrives"
    }
  },
  {
    "name": "AM par Alexandre Mazzia",
    "url": "https://restaurant.michelin.fr/4gq15sff/am-par-alexandre-mazzia-marseille-08",
    "address": {
      "street": "17 r. des Halles",
      "postalCode": "56000",
      "city": "Vannes"
    }
  },
  {
    "name": "Auberge de l'Ill",
    "url": "https://restaurant.michelin.fr/29nft26/auberge-de-lill-illhaeusern",
    "address": {
      "street": "25 Route des Carles",
      "postalCode": "83990",
      "city": "Saint-Tropez"
    }
  },
  {
    "name": "L'Arôme",
    "url": "https://restaurant.michelin.fr/2e8vcj7/larome-paris-08",
    "address": {
      "street": "7 Rue du Général de Gaulle",
      "postalCode": "68400",
      "city": "Riedisheim"
    }
  },
  {
    "name": "Les Cèdres",
    "url": "https://restaurant.michelin.fr/2appio4/les-cedres-granges-les-beaumont",
    "address": {
      "street": "4 r. Paul-Bertois",
      "postalCode": "07800",
      "city": "Charmes-sur-Rhône"
    }
  },
  {
    "name": "Les Clefs d'Argent",
    "url": "https://restaurant.michelin.fr/2e0bvx8/les-clefs-dargent-mont-de-marsan",
    "address": {
      "street": "2 pl. M. -Poisat",
      "postalCode": "01190",
      "city": "Pont-de-Vaux"
    }
  },
  {
    "name": "Grand Hôtel du Lion d'Or",
    "url": "https://restaurant.michelin.fr/2cn0867/grand-hotel-du-lion-dor-romorantin-lanthenay",
    "address": {
      "street": "14 faubourg de Paris",
      "postalCode": "89300",
      "city": "Joigny"
    }
  },
  {
    "name": "Dominique Bucaille",
    "url": "https://restaurant.michelin.fr/nwxo8h9/dominique-bucaille-manosque",
    "address": {
      "street": "6 Rue de la Sourdière",
      "postalCode": "75001",
      "city": "Paris"
    }
  },
  {
    "name": "Le Mascaret",
    "url": "https://restaurant.michelin.fr/2edzchf/le-mascaret-blainville-sur-mer",
    "address": {
      "street": "20 r. d'Artois",
      "postalCode": "75008",
      "city": "Paris"
    }
  },
  {
    "name": "Le Cinq",
    "url": "https://restaurant.michelin.fr/2ab2thp/le-cinq-paris-08",
    "address": {
      "street": "43 r. de France",
      "postalCode": "77300",
      "city": "Fontainebleau"
    }
  },
  {
    "name": "René et Maxime Meilleur",
    "url": "https://restaurant.michelin.fr/2avet55/rene-et-maxime-meilleur-saint-martin-de-belleville",
    "address": {
      "street": "189 Quai Ulysse Besnard",
      "postalCode": "41000",
      "city": "Blois"
    }
  },
  {
    "name": "Auberge St-Laurent",
    "url": "https://restaurant.michelin.fr/2b05ga9/auberge-st-laurent-sierentz",
    "address": {
      "street": "25 rue Bayen",
      "postalCode": "75017",
      "city": "Paris"
    }
  },
  {
    "name": "Le Clair de la Plume",
    "url": "https://restaurant.michelin.fr/2faahd5/le-clair-de-la-plume-grignan",
    "address": {
      "street": "112 avenue Victor-Hugo",
      "postalCode": "92100",
      "city": "Boulogne-Billancourt"
    }
  },
  {
    "name": "Les Berceaux",
    "url": "https://restaurant.michelin.fr/29fhuzu/les-berceaux-epernay",
    "address": {
      "street": "15 place Vendôme",
      "postalCode": "75001",
      "city": "Paris"
    }
  },
  {
    "name": "Apicius",
    "url": "https://restaurant.michelin.fr/2ek9zhh/apicius-clermont-ferrand",
    "address": {
      "street": "10 rte du Languedoc",
      "postalCode": "48130",
      "city": "Aumont-Aubrac"
    }
  },
  {
    "name": "L'Écrin",
    "url": "https://restaurant.michelin.fr/3503291/lecrin-paris-08",
    "address": {
      "street": "D943",
      "postalCode": "84160",
      "city": "Cadenet"
    }
  },
  {
    "name": "Logis de la Cadène",
    "url": "https://restaurant.michelin.fr/3kw7mh1/logis-de-la-cadene-saint-emilion",
    "address": {
      "street": "7 quai Georges Clemenceau",
      "postalCode": "78380",
      "city": "Bougival"
    }
  },
  {
    "name": "Au 14 Février",
    "url": "https://restaurant.michelin.fr/3ffziwd6/au-14-fevrier-platre-durand",
    "address": {
      "street": "10 rue de la Mer",
      "postalCode": "29260",
      "city": "PLOUIDER"
    }
  },
  {
    "name": "L'Orée de la Forêt",
    "url": "https://restaurant.michelin.fr/297c2t4/loree-de-la-foret-etouy",
    "address": {
      "street": "12 rue St-Adjutor",
      "postalCode": "63000",
      "city": "Clermont-Ferrand"
    }
  },
  {
    "name": "Palm Beach",
    "url": "https://restaurant.michelin.fr/299lkwi1/palm-beach-ajaccio",
    "address": {
      "street": "Le Bourg",
      "postalCode": "24510",
      "city": "Trémolat"
    }
  },
  {
    "name": "Yam'Tcha",
    "url": "https://restaurant.michelin.fr/2ewldde/yamtcha-paris-01",
    "address": {
      "street": "18 rue du Docteur Blanchard",
      "postalCode": "30700",
      "city": "Uzès"
    }
  },
  {
    "name": "La Bonne Auberge",
    "url": "https://restaurant.michelin.fr/29ifnwu/la-bonne-auberge-stiring-wendel",
    "address": {
      "street": "",
      "postalCode": "12390",
      "city": "Belcastel"
    }
  },
  {
    "name": "Apicius",
    "url": "https://restaurant.michelin.fr/2affgmi/apicius-paris-08",
    "address": {
      "street": "2 r. Gustave Deloye",
      "postalCode": "06000",
      "city": "Nice"
    }
  },
  {
    "name": "Henri et Joseph",
    "url": "https://restaurant.michelin.fr/2e29zv6/henri-et-joseph-lorient",
    "address": {
      "street": "1 Place Daviel",
      "postalCode": "13002",
      "city": "MARSEILLE"
    }
  },
  {
    "name": "Les Pyrénées",
    "url": "https://restaurant.michelin.fr/2cqrobi/les-pyrenees-saint-jean-pied-de-port",
    "address": {
      "street": "Route de Salernes",
      "postalCode": "83510",
      "city": "Lorgues"
    }
  },
  {
    "name": "Saturne",
    "url": "https://restaurant.michelin.fr/2fe4uol/saturne-paris-02",
    "address": {
      "street": "Rue Gabriel-Chevallier",
      "postalCode": "69460",
      "city": "VAUX-EN-BEAUJOLAIS"
    }
  },
  {
    "name": "Gaya Rive Gauche par Pierre Gagnaire",
    "url": "https://restaurant.michelin.fr/2aabj6o/gaya-rive-gauche-par-pierre-gagnaire-paris-07",
    "address": {
      "street": "80 Boulevard Ste Beuve",
      "postalCode": "62200",
      "city": "BOULOGNE-SUR-MER"
    }
  },
  {
    "name": "Château de la Treyne",
    "url": "https://restaurant.michelin.fr/2c38ubh/chateau-de-la-treyne-lacave",
    "address": {
      "street": "14 r. Bouquet-de-Longchamp",
      "postalCode": "75016",
      "city": "Paris"
    }
  },
  {
    "name": "Intuition",
    "url": "https://restaurant.michelin.fr/3ffxvs0j/intuition-saint-lo",
    "address": {
      "street": "11 r. Raymond Losserand",
      "postalCode": "75014",
      "city": "Paris 14"
    }
  },
  {
    "name": "Le Neuvième Art",
    "url": "https://restaurant.michelin.fr/6pz7edt2/le-neuvieme-art-lyon-06",
    "address": {
      "street": "79 rue Gilbert Navard",
      "postalCode": "41150",
      "city": "Onzain"
    }
  },
  {
    "name": "Gavroche",
    "url": "https://restaurant.michelin.fr/2b120tk/gavroche-strasbourg",
    "address": {
      "street": "3 Rue Vauban",
      "postalCode": "21000",
      "city": "Dijon"
    }
  },
  {
    "name": "Les Tables de Gaspard",
    "url": "https://restaurant.michelin.fr/2duw4bw/les-tables-de-gaspard-saint-crepin",
    "address": {
      "street": "plage de la Roya",
      "postalCode": "20217",
      "city": "Saint-Florent"
    }
  },
  {
    "name": "St-James Paris",
    "url": "https://restaurant.michelin.fr/9qoy529/st-james-paris-paris-16",
    "address": {
      "street": "333 Avenue des Martyrs de la Résistance",
      "postalCode": "40000",
      "city": "Mont-de-Marsan"
    }
  },
  {
    "name": "Le Montgomerie",
    "url": "https://restaurant.michelin.fr/29b4lr4/le-montgomerie-courchevel-1850",
    "address": {
      "street": "7, Promenade Amiral de Grasse",
      "postalCode": "06600",
      "city": "Antibes"
    }
  },
  {
    "name": "Le Château de Sable",
    "url": "https://restaurant.michelin.fr/2nnu14s6/le-chateau-de-sable-porspoder",
    "address": {
      "street": "35 av. Gén. -de-Gaulle",
      "postalCode": "68170",
      "city": "Rixheim"
    }
  },
  {
    "name": "Mickaël Féval",
    "url": "https://restaurant.michelin.fr/sv592kt5/mickael-feval-aix-en-provence",
    "address": {
      "street": "chemin de Martorey",
      "postalCode": "71100",
      "city": "Saint-Rémy"
    }
  },
  {
    "name": "Laurent",
    "url": "https://restaurant.michelin.fr/2abdvpo/laurent-paris-08",
    "address": {
      "street": "33 boulevard E. -Baudoin",
      "postalCode": "06160",
      "city": "Juan-les-Pins"
    }
  },
  {
    "name": "Auberge St-Walfrid",
    "url": "https://restaurant.michelin.fr/2ayc9n6/auberge-st-walfrid-sarreguemines",
    "address": {
      "street": "11 rte du Maquis-Jean-Pierre",
      "postalCode": "12340",
      "city": "Bozouls"
    }
  },
  {
    "name": "Transparence ",
    "url": "https://restaurant.michelin.fr/2jtf0iqj/transparence-la-table-de-patrick-frechin-nancy",
    "address": {
      "street": "4 rue du Professeur Pierre MARION",
      "postalCode": "69005",
      "city": "Lyon 05"
    }
  },
  {
    "name": "Clovis",
    "url": "https://restaurant.michelin.fr/2evgb1v/clovis-tourrettes-sur-loup",
    "address": {
      "street": "9 Place des Vosges",
      "postalCode": "75004",
      "city": "Paris"
    }
  },
  {
    "name": "Allium",
    "url": "https://restaurant.michelin.fr/suqhhtor/allium-quimper",
    "address": {
      "street": "Le Plâtre-Durand",
      "postalCode": "71570",
      "city": "Saint-Amour-Bellevue"
    }
  },
  {
    "name": "Maison Crouzil et Hôtel L'Écrin",
    "url": "https://restaurant.michelin.fr/2akcwpg8/maison-crouzil-et-hotel-lecrin-plancoet",
    "address": {
      "street": "69 r. Clemenceau",
      "postalCode": "41200",
      "city": "Romorantin-Lanthenay"
    }
  },
  {
    "name": "Le Pot d'Étain",
    "url": "https://restaurant.michelin.fr/28vc6i9/le-pot-detain-danjoutin",
    "address": {
      "street": "bd des Platanes",
      "postalCode": "84240",
      "city": "Ansouis"
    }
  },
  {
    "name": "L'Hysope",
    "url": "https://restaurant.michelin.fr/hq8ezzf7/lhysope-la-jarrie",
    "address": {
      "street": "74 av. du Gén.-de-Gaulle",
      "postalCode": "45200",
      "city": "Montargis"
    }
  },
  {
    "name": "Étude",
    "url": "https://restaurant.michelin.fr/3g8qf775/etude-paris-16",
    "address": {
      "street": "142 AVENUE DES CHAMPS ELYSEES",
      "postalCode": "75008",
      "city": "PARIS"
    }
  },
  {
    "name": "Château de Codignat",
    "url": "https://restaurant.michelin.fr/2c4fx70/chateau-de-codignat-bort-letang",
    "address": {
      "street": "18 Rue Bellevue",
      "postalCode": "67290",
      "city": "Wingen-sur-Moder"
    }
  },
  {
    "name": "L'Aromate",
    "url": "https://restaurant.michelin.fr/2epn29l/laromate-nice",
    "address": {
      "street": "r. de la Mairie",
      "postalCode": "42820",
      "city": "Ambierle"
    }
  },
  {
    "name": "Les Genêts",
    "url": "https://restaurant.michelin.fr/3ws5njk2/les-genets-brem-sur-mer",
    "address": {
      "street": "38 rte du Bouchet",
      "postalCode": "74400",
      "city": "Chamonix-Mont-Blanc"
    }
  },
  {
    "name": "Le St-Martin",
    "url": "https://restaurant.michelin.fr/29zciea/le-st-martin-montbeliard",
    "address": {
      "street": "4 av. de la République",
      "postalCode": "90400",
      "city": "Danjoutin"
    }
  },
  {
    "name": "L'Océan",
    "url": "https://restaurant.michelin.fr/szxhgy9t/locean-saint-jean-de-luz",
    "address": {
      "street": "route de Roquefraîche",
      "postalCode": "84360",
      "city": "Lauris"
    }
  },
  {
    "name": "Baumanière 1850",
    "url": "https://restaurant.michelin.fr/2f4vonu/baumaniere-1850-courchevel-1850",
    "address": {
      "street": "12 r. de la Charme",
      "postalCode": "21370",
      "city": "Prenois"
    }
  },
  {
    "name": "Pages",
    "url": "https://restaurant.michelin.fr/9idrgh03/pages-paris-16",
    "address": {
      "street": "24 Rue Saint-Manvieu",
      "postalCode": "14000",
      "city": "Caen"
    }
  },
  {
    "name": "La Vieille Tour",
    "url": "https://restaurant.michelin.fr/2arxchk/la-vieille-tour-plerin",
    "address": {
      "street": "25 r. de l'Aurore",
      "postalCode": "17220",
      "city": "La Jarrie"
    }
  },
  {
    "name": "Une Île",
    "url": "https://restaurant.michelin.fr/2erjwfi/une-ile-angers",
    "address": {
      "street": "270 Chemin de Malombre",
      "postalCode": "26780",
      "city": "Malataverne"
    }
  },
  {
    "name": "La Table du Connétable",
    "url": "https://restaurant.michelin.fr/jgutdlg/la-table-du-connetable-chantilly",
    "address": {
      "street": "La Ville Blanche",
      "postalCode": "22300",
      "city": "Rospez"
    }
  },
  {
    "name": "La Chassagnette",
    "url": "https://restaurant.michelin.fr/28qr6q2/la-chassagnette-arles",
    "address": {
      "street": "27 Rue Pierre Leroux",
      "postalCode": "75007",
      "city": "PARIS"
    }
  },
  {
    "name": "Qui plume la Lune",
    "url": "https://restaurant.michelin.fr/jh83esx/qui-plume-la-lune-paris-11",
    "address": {
      "street": "19 descente de la Halle-aux-Poissons",
      "postalCode": "31000",
      "city": "Toulouse"
    }
  },
  {
    "name": "Le Passe Temps",
    "url": "https://restaurant.michelin.fr/44ahwpa/le-passe-temps-lyon-06",
    "address": {
      "street": "6 Rue Jean Jaures",
      "postalCode": "59590",
      "city": "Raismes"
    }
  },
  {
    "name": "Likoké",
    "url": "https://restaurant.michelin.fr/1ad26y4c/likoke-les-vans",
    "address": {
      "street": "31 Avenue George-V",
      "postalCode": "75008",
      "city": "Paris"
    }
  },
  {
    "name": "La Table du 11",
    "url": "https://restaurant.michelin.fr/d4dm7ddr/la-table-du-11-versailles",
    "address": {
      "street": "27 Place Isaac Benserade",
      "postalCode": "27480",
      "city": "Lyons-la-Forêt"
    }
  },
  {
    "name": "Albert 1er",
    "url": "https://restaurant.michelin.fr/2bnvpvu/albert-1er-chamonix-mont-blanc",
    "address": {
      "street": "r. de Belle-Sise",
      "postalCode": "69380",
      "city": "Chasselay"
    }
  },
  {
    "name": "La Balette",
    "url": "https://restaurant.michelin.fr/2dlsvt0/la-balette-collioure",
    "address": {
      "street": "23 r. Jean Payra",
      "postalCode": "66000",
      "city": "Perpignan"
    }
  },
  {
    "name": "Prairial",
    "url": "https://restaurant.michelin.fr/cpiyfjc0/prairial-lyon",
    "address": {
      "street": "3 pl. Reveillère-Lepeaux",
      "postalCode": "85600",
      "city": "Montaigu"
    }
  },
  {
    "name": "L'Atelier Yssoirien",
    "url": "https://restaurant.michelin.fr/akc6ovv/latelier-yssoirien-issoire",
    "address": {
      "street": "8 r. de la Clarté",
      "postalCode": "24000",
      "city": "Périgueux"
    }
  },
  {
    "name": "Maison Christian Étienne",
    "url": "https://restaurant.michelin.fr/28s2o1u/maison-christian-etienne-avignon",
    "address": {
      "street": "rue Jean-Honoré Carle",
      "postalCode": "06210",
      "city": "La Napoule"
    }
  },
  {
    "name": "Le Vivier",
    "url": "https://restaurant.michelin.fr/29nsjme/le-vivier-lisle-sur-la-sorgue",
    "address": {
      "street": "142 r. de l'Église",
      "postalCode": "64210",
      "city": "Guéthary"
    }
  },
  {
    "name": "Auberge de la Brie",
    "url": "https://restaurant.michelin.fr/29ask7o/auberge-de-la-brie-couilly-pont-aux-dames",
    "address": {
      "street": "6 pl. Godinot",
      "postalCode": "51100",
      "city": "Reims"
    }
  },
  {
    "name": "Quai des Saveurs",
    "url": "https://restaurant.michelin.fr/2e9sbx2/quai-des-saveurs-hagondange",
    "address": {
      "street": "1 r. du Gén.-Leclerc",
      "postalCode": "25200",
      "city": "Montbéliard"
    }
  },
  {
    "name": "Buerehiesel",
    "url": "https://restaurant.michelin.fr/2b0sgrs/buerehiesel-strasbourg",
    "address": {
      "street": "44 rue de l' eure",
      "postalCode": "27340",
      "city": "Les Damps"
    }
  },
  {
    "name": "Astrance",
    "url": "https://restaurant.michelin.fr/2aeq3md/astrance-paris-16",
    "address": {
      "street": "28 bd René-Aimé-Lagabrielle",
      "postalCode": "60540",
      "city": "Belle-Église"
    }
  },
  {
    "name": "Serge Vieira",
    "url": "https://restaurant.michelin.fr/2ey495p/serge-vieira-chaudes-aigues",
    "address": {
      "street": "6 place du poncel",
      "postalCode": "35400",
      "city": "Saint-Malo"
    }
  },
  {
    "name": "Le Petit Nice",
    "url": "https://restaurant.michelin.fr/2c76rmd/le-petit-nice-marseille-07",
    "address": {
      "street": "80 r. de Charonne",
      "postalCode": "75011",
      "city": "Paris"
    }
  },
  {
    "name": "Hostellerie du Rosenmeer",
    "url": "https://restaurant.michelin.fr/2cnfm96/hostellerie-du-rosenmeer-rosheim",
    "address": {
      "street": "38 rue St-Jean-de-l'Habit",
      "postalCode": "49590",
      "city": "FONTEVRAUD-L'ABBAYE"
    }
  },
  {
    "name": "Initial",
    "url": "https://restaurant.michelin.fr/sd2y8ik/initial-caen",
    "address": {
      "street": "10 place de la Concorde",
      "postalCode": "75008",
      "city": "Paris"
    }
  },
  {
    "name": "La Licorne Royale",
    "url": "https://restaurant.michelin.fr/2ehwc2a/la-licorne-royale-lyons-la-foret",
    "address": {
      "street": "351 Chemin du Mas de Boudan",
      "postalCode": "30000",
      "city": "Nîmes"
    }
  },
  {
    "name": "Alléno Paris au Pavillon Ledoyen",
    "url": "https://restaurant.michelin.fr/2ab5qlx/alleno-paris-au-pavillon-ledoyen-paris-08",
    "address": {
      "street": "20 quai Gailleton",
      "postalCode": "69002",
      "city": "Lyon"
    }
  },
  {
    "name": "Julien Binz",
    "url": "https://restaurant.michelin.fr/yi79hbnh/julien-binz-ammerschwihr",
    "address": {
      "street": "9 r. Max-Richard",
      "postalCode": "49000",
      "city": "Angers"
    }
  },
  {
    "name": "L'Auberge de la Pomme",
    "url": "https://restaurant.michelin.fr/2al6a9i/lauberge-de-la-pomme-les-damps",
    "address": {
      "street": "260 r. Guillaume-du-Vair",
      "postalCode": "13546",
      "city": "Aix-en-Provence"
    }
  },
  {
    "name": "Domaine de Clairefontaine",
    "url": "https://restaurant.michelin.fr/2b8j4np/domaine-de-clairefontaine-chonas-lamballan",
    "address": {
      "street": "43 av. Bugeaud",
      "postalCode": "75116",
      "city": "Paris"
    }
  },
  {
    "name": "Faventia",
    "url": "https://restaurant.michelin.fr/2dix4nq137/faventia-tourrettes",
    "address": {
      "street": "11 quai St-Ivy",
      "postalCode": "56510",
      "city": "Portivy"
    }
  },
  {
    "name": "L'Ekrin by Laurent Azoulay",
    "url": "https://restaurant.michelin.fr/9isyik39/lekrin-laurent-azoulay-meribel-mottaret",
    "address": {
      "street": "1 rue Fontaine",
      "postalCode": "68510",
      "city": "Sierentz"
    }
  },
  {
    "name": "Le M",
    "url": "https://restaurant.michelin.fr/2epv4gf/le-m-brest",
    "address": {
      "street": "84 Rue de Varenne",
      "postalCode": "75007",
      "city": "Paris"
    }
  },
  {
    "name": "Le Carrousel",
    "url": "https://restaurant.michelin.fr/2dwt9zi/le-carrousel-maringues",
    "address": {
      "street": "2 rue de Collonges-au-Mont d'Or",
      "postalCode": "68970",
      "city": "Illhaeusern"
    }
  },
  {
    "name": "Anne de Bretagne",
    "url": "https://restaurant.michelin.fr/2ciults/anne-de-bretagne-la-plaine-sur-mer",
    "address": {
      "street": "69 rue de la Gare",
      "postalCode": "57300",
      "city": "Hagondange"
    }
  },
  {
    "name": "Les Morainières",
    "url": "https://restaurant.michelin.fr/2dd2ann/les-morainieres-jongieux",
    "address": {
      "street": "5 rue 1ère Armée",
      "postalCode": "68340",
      "city": "Riquewihr"
    }
  },
  {
    "name": "La Scène",
    "url": "https://restaurant.michelin.fr/1ore4aj2/la-scene-paris-08",
    "address": {
      "street": "31 Avenue George V",
      "postalCode": "75008",
      "city": "Paris"
    },
    "id": "5497",
    "isFound": true
  },
  {
    "name": "Le Moulin de la Gorce",
    "url": "https://restaurant.michelin.fr/2awwemv/le-moulin-de-la-gorce-la-roche-labeille",
    "address": {
      "street": "39 Boulevard Triozon-Bayle",
      "postalCode": "63500",
      "city": "Issoire"
    }
  },
  {
    "name": "Le Prince Noir - Vivien Durand",
    "url": "https://restaurant.michelin.fr/4g00u3j8/le-prince-noir-vivien-durand-lormont",
    "address": {
      "street": "Saint Marcel",
      "postalCode": "73440",
      "city": "Saint-Martin-de-Belleville"
    }
  },
  {
    "name": "Le Baudelaire",
    "url": "https://restaurant.michelin.fr/2fdc0eg/le-baudelaire-paris-01",
    "address": {
      "street": "18 Rue Troyon",
      "postalCode": "75017",
      "city": "Paris"
    }
  },
  {
    "name": "La Palme d'Or",
    "url": "https://restaurant.michelin.fr/292bk5u/la-palme-dor-cannes",
    "address": {
      "street": "2 chemin de la Falaise",
      "postalCode": "76200",
      "city": "Dieppe"
    }
  },
  {
    "name": "La Scène Thélème",
    "url": "https://restaurant.michelin.fr/ygx47dyb/la-scene-theleme-paris-17",
    "address": {
      "street": "D17",
      "postalCode": "87800",
      "city": "La Roche-l'Abeille"
    }
  },
  {
    "name": "L'Escarbille",
    "url": "https://restaurant.michelin.fr/2dtzs6c/lescarbille-meudon",
    "address": {
      "street": "Route de la Montée",
      "postalCode": "73550",
      "city": "MERIBEL"
    }
  },
  {
    "name": "Régis et Jacques Marcon",
    "url": "https://restaurant.michelin.fr/2dntkxh/regis-et-jacques-marcon-saint-bonnet-le-froid",
    "address": {
      "street": "chemin Alotz-Errota",
      "postalCode": "64200",
      "city": "Alotz"
    }
  },
  {
    "name": "Le Bois sans Feuilles",
    "url": "https://restaurant.michelin.fr/2cm53gy/le-bois-sans-feuilles-ouches",
    "address": {
      "street": "Rue du Boeuf",
      "postalCode": "69005",
      "city": "Lyon 05"
    }
  },
  {
    "name": "Auberge de la Diligence",
    "url": "https://restaurant.michelin.fr/29ryt77/auberge-de-la-diligence-loire",
    "address": {
      "street": "5 Boulevard du Maréchal Leclerc",
      "postalCode": "06310",
      "city": "Beaulieu-sur-Mer"
    }
  },
  {
    "name": "Le P'tit Polyte",
    "url": "https://restaurant.michelin.fr/2bufvvg87/le-ptit-polyte-les-deux-alpes",
    "address": {
      "street": "14 rue du Pont de Morge",
      "postalCode": "63350",
      "city": "MARINGUES"
    }
  },
  {
    "name": "Pur' - Jean-François Rouquette",
    "url": "https://restaurant.michelin.fr/2dqiunf/pur-jean-francois-rouquette-paris-02",
    "address": {
      "street": "1775 rte du Leutaz",
      "postalCode": "74120",
      "city": "Megève"
    }
  },
  {
    "name": "Neige d'Été",
    "url": "https://restaurant.michelin.fr/9fkib5i9/neige-dete-paris-15",
    "address": {
      "street": "90 Avenue de Liege",
      "postalCode": "59300",
      "city": "Valenciennes"
    }
  },
  {
    "name": "Antoine",
    "url": "https://restaurant.michelin.fr/2euo0rk/antoine-paris-16",
    "address": {
      "street": "1 r. A. Thibaudet",
      "postalCode": "71700",
      "city": "Tournus"
    }
  },
  {
    "name": "Ô Saveurs",
    "url": "https://restaurant.michelin.fr/2b3jb0y/o-saveurs-rouffiac-tolosan",
    "address": {
      "street": "10 Rue de Mons",
      "postalCode": "84000",
      "city": "Avignon"
    }
  },
  {
    "name": "La Mare aux Oiseaux",
    "url": "https://restaurant.michelin.fr/2atvlv0/la-mare-aux-oiseaux-saint-joachim",
    "address": {
      "street": "820 Avenue de Saint-Maur",
      "postalCode": "34000",
      "city": "Montpellier"
    }
  },
  {
    "name": "La Table de La Butte",
    "url": "https://restaurant.michelin.fr/2cj2itx/la-table-de-la-butte-plouider",
    "address": {
      "street": "373 chemin des follières",
      "postalCode": "74120",
      "city": "Megève"
    }
  },
  {
    "name": "Le Candille",
    "url": "https://restaurant.michelin.fr/2a1fgdk/le-candille-mougins",
    "address": {
      "street": "7 r. d'Eschbach",
      "postalCode": "67580",
      "city": "Laubach"
    }
  },
  {
    "name": "64° Le Restaurant",
    "url": "https://restaurant.michelin.fr/2c30770n/64deg-le-restaurant-kaysersberg-vignoble",
    "address": {
      "street": "32 Rue de la Barre",
      "postalCode": "59000",
      "city": "Lille"
    }
  },
  {
    "name": "Hélène Darroze",
    "url": "https://restaurant.michelin.fr/2a93ort/helene-darroze-paris-06",
    "address": {
      "street": "1 r. Pierre Leroux",
      "postalCode": "75007",
      "city": "Paris 07"
    }
  },
  {
    "name": "L'Abeille",
    "url": "https://restaurant.michelin.fr/2fcezsf/labeille-paris-16",
    "address": {
      "street": "66 Allée des Marmousets",
      "postalCode": "74120",
      "city": "Megève"
    }
  },
  {
    "name": "L'Atelier de Gaztelur",
    "url": "https://restaurant.michelin.fr/t3tqba7q/latelier-de-gaztelur-arcangues",
    "address": {
      "street": "4 r. Léo-le-Bourgo",
      "postalCode": "56100",
      "city": "Lorient"
    }
  },
  {
    "name": "Le 7ème Continent",
    "url": "https://restaurant.michelin.fr/9tnfzh4/le-7eme-continent-rixheim",
    "address": {
      "street": "25 Rue Henri MACHON",
      "postalCode": "26600",
      "city": "Granges-les-Beaumont"
    }
  },
  {
    "name": "La Table Saint-Crescent",
    "url": "https://restaurant.michelin.fr/2a3kuo9/la-table-saint-crescent-narbonne",
    "address": {
      "street": "25 r. de Locmalo",
      "postalCode": "56290",
      "city": "Port-Louis"
    }
  },
  {
    "name": "Le Chabichou",
    "url": "https://restaurant.michelin.fr/2btao3c/le-chabichou-courchevel-1850",
    "address": {
      "street": "Sauveterre de Rouergue",
      "postalCode": "12800",
      "city": "Sauveterre-de-Rouergue"
    }
  },
  {
    "name": "Les Climats",
    "url": "https://restaurant.michelin.fr/3x7v6dz/les-climats-paris-07",
    "address": {
      "street": "75 r. de la Tour",
      "postalCode": "22190",
      "city": "Plérin"
    }
  },
  {
    "name": "Passage 53",
    "url": "https://restaurant.michelin.fr/2ezpxm7/passage-53-paris-02",
    "address": {
      "street": "16 r. du Jeu-de-Paume",
      "postalCode": "56400",
      "city": "Auray"
    }
  },
  {
    "name": "Le Kaïku",
    "url": "https://restaurant.michelin.fr/2atmq22/le-kaiku-saint-jean-de-luz",
    "address": {
      "street": "2 r. du Portail",
      "postalCode": "36100",
      "city": "Saint-Valentin"
    }
  },
  {
    "name": "Château de Mirambeau",
    "url": "https://restaurant.michelin.fr/2c914ee/chateau-de-mirambeau-mirambeau",
    "address": {
      "street": "4 r. Klein",
      "postalCode": "67000",
      "city": "Strasbourg"
    }
  },
  {
    "name": "Au 14 Février",
    "url": "https://restaurant.michelin.fr/2f80e2p/au-14-fevrier-saint-valentin",
    "address": {
      "street": "8 place Ormeaux au village",
      "postalCode": "31180",
      "city": "ROUFFIAC-TOLOSAN"
    }
  },
  {
    "name": "Table des Frères Ibarboure",
    "url": "https://restaurant.michelin.fr/28x2q9k/table-des-freres-ibarboure-bidart",
    "address": {
      "street": "5 r. de la Paix",
      "postalCode": "75002",
      "city": "Paris 02"
    }
  },
  {
    "name": "Py-r",
    "url": "https://restaurant.michelin.fr/2fdyj14/py-r-toulouse",
    "address": {
      "street": "45 avenue de la Gare",
      "postalCode": "67560",
      "city": "ROSHEIM"
    }
  },
  {
    "name": "La Grenouillère",
    "url": "https://restaurant.michelin.fr/2a0ne3f/la-grenouillere-la-madelaine-sous-montreuil",
    "address": {
      "street": "Larsiallas",
      "postalCode": "43290",
      "city": "SAINT-BONNET-LE-FROID"
    }
  },
  {
    "name": "Les Trois Dômes",
    "url": "https://restaurant.michelin.fr/29svngf/les-trois-domes-lyon-02",
    "address": {
      "street": "112 r. Fg St-Honoré",
      "postalCode": "75008",
      "city": "Paris 08"
    }
  },
  {
    "name": "Guy Lassausaie",
    "url": "https://restaurant.michelin.fr/295zuzb/guy-lassausaie-chasselay",
    "address": {
      "street": "39 Avenue George V",
      "postalCode": "75008",
      "city": "Paris 08"
    }
  },
  {
    "name": "Le George",
    "url": "https://restaurant.michelin.fr/9q8vl0jf/le-george-paris-08",
    "address": {
      "street": "7 rte de Païolive",
      "postalCode": "07140",
      "city": "Les Vans"
    }
  },
  {
    "name": "Restaurant de Lauzun",
    "url": "https://restaurant.michelin.fr/29k1mm1/restaurant-de-lauzun-gignac",
    "address": {
      "street": "9 rue Balzac",
      "postalCode": "75008",
      "city": "Paris 08"
    }
  },
  {
    "name": "Le Puits St-Jacques",
    "url": "https://restaurant.michelin.fr/29nnrkd/le-puits-st-jacques-pujaudran",
    "address": {
      "street": "pl. du Marché",
      "postalCode": "01540",
      "city": "Vonnas"
    }
  },
  {
    "name": "La Table d'Olivier",
    "url": "https://restaurant.michelin.fr/5f24ty3/la-table-dolivier-brive-la-gaillarde",
    "address": {
      "street": "715 av. des Savels",
      "postalCode": "04100",
      "city": "Manosque"
    }
  },
  {
    "name": "L'Atelier de Joël Robuchon - Étoile",
    "url": "https://restaurant.michelin.fr/2feca5y/latelier-de-joel-robuchon-etoile-paris-08",
    "address": {
      "street": "chemin de la Quessine",
      "postalCode": "83350",
      "city": "Ramatuelle"
    }
  },
  {
    "name": "Les Loges",
    "url": "https://restaurant.michelin.fr/29t3z0x/les-loges-lyon-05",
    "address": {
      "street": "1 Le Limonay",
      "postalCode": "35350",
      "city": "Saint-Méloir-des-Ondes"
    }
  },
  {
    "name": "Maximilien",
    "url": "https://restaurant.michelin.fr/2aoyre2/maximilien-zellenberg",
    "address": {
      "street": "10 Rue Labottière",
      "postalCode": "33000",
      "city": "Bordeaux"
    }
  },
  {
    "name": "114, Faubourg",
    "url": "https://restaurant.michelin.fr/2f3fs2n/114-faubourg-paris-08",
    "address": {
      "street": "50 rte Nationale",
      "postalCode": "51500",
      "city": "Montchenot"
    }
  },
  {
    "name": "La Table de Nans",
    "url": "https://restaurant.michelin.fr/akfvyg8/la-table-de-nans-la-ciotat",
    "address": {
      "street": "2 Rue de la Chapelle",
      "postalCode": "38860",
      "city": "Les Deux Alpes"
    }
  },
  {
    "name": "Le Lido",
    "url": "https://restaurant.michelin.fr/29ajku0/le-lido-propriano",
    "address": {
      "street": "15 rue du Parc",
      "postalCode": "03200",
      "city": "Vichy"
    }
  },
  {
    "name": "Auberge du Pont d'Acigné",
    "url": "https://restaurant.michelin.fr/2ao77e3/auberge-du-pont-dacigne-noyal-sur-vilaine",
    "address": {
      "street": "163, Boulevard de la Tara",
      "postalCode": "44770",
      "city": "La Plaine-sur-Mer"
    }
  },
  {
    "name": "Le Gourmet de Sèze",
    "url": "https://restaurant.michelin.fr/29trkin/le-gourmet-de-seze-lyon-06",
    "address": {
      "street": "22 pl. des Épars",
      "postalCode": "28000",
      "city": "CHARTRES"
    }
  },
  {
    "name": "La Table du Gourmet",
    "url": "https://restaurant.michelin.fr/2aosxv6/la-table-du-gourmet-riquewihr",
    "address": {
      "street": "73 Boulevard de la Croisette",
      "postalCode": "06400",
      "city": "Cannes"
    }
  },
  {
    "name": "Skab",
    "url": "https://restaurant.michelin.fr/olnthqo/skab-nimes",
    "address": {
      "street": "14 rue de Castiglione",
      "postalCode": "75001",
      "city": "Paris 01"
    }
  },
  {
    "name": "La Table de l'Alpaga",
    "url": "https://restaurant.michelin.fr/9tlmhvt/la-table-de-lalpaga-megeve",
    "address": {
      "street": "37 Promenade des Anglais",
      "postalCode": "06000",
      "city": "NICE"
    }
  },
  {
    "name": "Le Saint-Martin",
    "url": "https://restaurant.michelin.fr/2d1gnwo/le-saint-martin-vence",
    "address": {
      "street": "15 r. Nationale",
      "postalCode": "57350",
      "city": "Stiring-Wendel"
    }
  },
  {
    "name": "Au Crocodile",
    "url": "https://restaurant.michelin.fr/kl196wcf/au-crocodile-strasbourg",
    "address": {
      "street": "20 av. 2e-Division-Blindée",
      "postalCode": "61200",
      "city": "Argentan"
    }
  },
  {
    "name": "Jin",
    "url": "https://restaurant.michelin.fr/1t2b08px/jin-paris-01",
    "address": {
      "street": "43 av. P. et M.-Curie",
      "postalCode": "63400",
      "city": "Chamalières"
    }
  },
  {
    "name": "Le Champ des Lunes",
    "url": "https://restaurant.michelin.fr/ua2fx9zg/le-champ-des-lunes-lauris",
    "address": {
      "street": "6 r. du Boeuf",
      "postalCode": "69005",
      "city": "Lyon 05"
    }
  },
  {
    "name": "L'Orangerie",
    "url": "https://restaurant.michelin.fr/2851286/lorangerie-paris-08",
    "address": {
      "street": "4 rue d'Assas",
      "postalCode": "75006",
      "city": "Paris 06"
    }
  },
  {
    "name": "La Lorraine",
    "url": "https://restaurant.michelin.fr/2bavyqh/la-lorraine-zoufftgen",
    "address": {
      "street": "route de Perpignan",
      "postalCode": "11100",
      "city": "Narbonne"
    }
  },
  {
    "name": "La Marine",
    "url": "https://restaurant.michelin.fr/29n79hz/la-marine-lherbaudiere",
    "address": {
      "street": "11 Rue Chavanne",
      "postalCode": "69001",
      "city": "Lyon"
    }
  },
  {
    "name": "Le Bistro des Saveurs",
    "url": "https://restaurant.michelin.fr/2a619xs/le-bistro-des-saveurs-obernai",
    "address": {
      "street": "7 pl. St-Sernin",
      "postalCode": "31000",
      "city": "Toulouse"
    }
  },
  {
    "name": "Les Voiles d'Or",
    "url": "https://restaurant.michelin.fr/2dtoif7/les-voiles-dor-dieppe",
    "address": {
      "street": "10 Avenue d'Iéna",
      "postalCode": "75016",
      "city": "Paris 16"
    }
  },
  {
    "name": "Jean-Claude Leclerc",
    "url": "https://restaurant.michelin.fr/297ge86/jean-claude-leclerc-clermont-ferrand",
    "address": {
      "street": "247 avenue de Provence",
      "postalCode": "06140",
      "city": "VENCE"
    }
  },
  {
    "name": "Gordon Ramsay au Trianon",
    "url": "https://restaurant.michelin.fr/2aiqpqd/gordon-ramsay-au-trianon-versailles",
    "address": {
      "street": "3 r. de Prague",
      "postalCode": "75012",
      "city": "Paris"
    }
  },
  {
    "name": "SEPT",
    "url": "https://restaurant.michelin.fr/2b38wht/sept-toulouse",
    "address": {
      "street": "22 lieu-dit Journal",
      "postalCode": "25190",
      "city": "Chamesol"
    }
  },
  {
    "name": "La Pyramide-Patrick Henriroux",
    "url": "https://restaurant.michelin.fr/2f4bg71/la-pyramide-patrick-henriroux-vienne",
    "address": {
      "street": "3 rue des Meuniers",
      "postalCode": "60350",
      "city": "SAINT-JEAN-AUX-BOIS"
    }
  },
  {
    "name": "Restaurant des Rois",
    "url": "https://restaurant.michelin.fr/2bh3p7k/restaurant-des-rois-beaulieu-sur-mer",
    "address": {
      "street": "20 r. Comte de Cessole",
      "postalCode": "06320",
      "city": "La Turbie"
    }
  },
  {
    "name": "L'Archeste",
    "url": "https://restaurant.michelin.fr/2852206/larcheste-paris-16",
    "address": {
      "street": "3 r. Ste-Catherine",
      "postalCode": "54000",
      "city": "Nancy"
    }
  },
  {
    "name": "1741",
    "url": "https://restaurant.michelin.fr/amv21i8/1741-strasbourg",
    "address": {
      "street": "19 Rue Lauriston",
      "postalCode": "75016",
      "city": "Paris"
    }
  },
  {
    "name": "Arpège",
    "url": "https://restaurant.michelin.fr/2aa11xs/arpege-paris-07",
    "address": {
      "street": "Rue de Lillers",
      "postalCode": "62350",
      "city": "Busnes"
    }
  },
  {
    "name": "La Grange de Belle-Église",
    "url": "https://restaurant.michelin.fr/28vem1k/la-grange-de-belle-eglise-belle-eglise",
    "address": {
      "street": "D23",
      "postalCode": "46200",
      "city": "Lacave"
    }
  },
  {
    "name": "Le Saint-James",
    "url": "https://restaurant.michelin.fr/2bj8gr9/le-saint-james-bouliac",
    "address": {
      "street": "37 avenue Hoche",
      "postalCode": "75008",
      "city": "Paris 08"
    }
  },
  {
    "name": "Les Bories",
    "url": "https://restaurant.michelin.fr/2byq8tg/les-bories-gordes",
    "address": {
      "street": "av. Jean-Monnet",
      "postalCode": "57380",
      "city": "Faulquemont"
    }
  },
  {
    "name": "Toya",
    "url": "https://restaurant.michelin.fr/3vxe9bf/toya-faulquemont",
    "address": {
      "street": "14 rte de Bourges",
      "postalCode": "45500",
      "city": "Gien"
    }
  },
  {
    "name": "Le Kintessence",
    "url": "https://restaurant.michelin.fr/am8q9hp/le-kintessence-courchevel-1850",
    "address": {
      "street": "D6",
      "postalCode": "14400",
      "city": "Sully"
    }
  },
  {
    "name": "Le Clocher des Pères",
    "url": "https://restaurant.michelin.fr/h43i086/le-clocher-des-peres-saint-martin-sur-la-chambre",
    "address": {
      "street": "2,5 Place de la Comédie",
      "postalCode": "33000",
      "city": "Bordeaux"
    }
  },
  {
    "name": "La Renaissance",
    "url": "https://restaurant.michelin.fr/28qk3fo/la-renaissance-argentan",
    "address": {
      "street": "La Chabotterie",
      "postalCode": "85260",
      "city": "Saint-Sulpice-le-Verdon"
    }
  },
  {
    "name": "Auberge de la Charme",
    "url": "https://restaurant.michelin.fr/29dyqga/auberge-de-la-charme-prenois",
    "address": {
      "street": "r. Gallieni",
      "postalCode": "72200",
      "city": "La Flèche"
    }
  },
  {
    "name": "Pierre",
    "url": "https://restaurant.michelin.fr/29uvz3j/pierre-macon",
    "address": {
      "street": "35 r. Percière",
      "postalCode": "76000",
      "city": "Rouen"
    }
  },
  {
    "name": "Château Cordeillan-Bages",
    "url": "https://restaurant.michelin.fr/2chq5p0/chateau-cordeillan-bages-pauillac",
    "address": {
      "street": "5 av. Provence",
      "postalCode": "88000",
      "city": "Épinal"
    }
  },
  {
    "name": "La Chèvre d'Or",
    "url": "https://restaurant.michelin.fr/2bwkh5l/la-chevre-dor-eze",
    "address": {
      "street": "1 Rue du Milieu",
      "postalCode": "27620",
      "city": "Giverny"
    }
  },
  {
    "name": "La Maison dans le Parc",
    "url": "https://restaurant.michelin.fr/2elnjes/la-maison-dans-le-parc-nancy",
    "address": {
      "street": "36 rte de St-Galmier",
      "postalCode": "42140",
      "city": "Chazelles-sur-Lyon"
    }
  },
  {
    "name": "Le Vieux Logis",
    "url": "https://restaurant.michelin.fr/2cz3yz2/le-vieux-logis-tremolat",
    "address": {
      "street": "Place du Mail",
      "postalCode": "26230",
      "city": "Grignan"
    }
  },
  {
    "name": "Le 1947",
    "url": "https://restaurant.michelin.fr/2eac1q1/le-1947-courchevel-1850",
    "address": {
      "street": "429 bd Paul-Lintier",
      "postalCode": "53100",
      "city": "Mayenne"
    }
  },
  {
    "name": "Fontevraud Le Restaurant",
    "url": "https://restaurant.michelin.fr/9pbvgq6a/fontevraud-le-restaurant-fontevraud-labbaye",
    "address": {
      "street": "12 Rue de l'Amiral Roussin",
      "postalCode": "75015",
      "city": "Paris 15"
    }
  },
  {
    "name": "La Table de Manville",
    "url": "https://restaurant.michelin.fr/9wstvf9t/la-table-de-manville-les-baux-de-provence",
    "address": {
      "street": "route de Marétel",
      "postalCode": "73170",
      "city": "Jongieux"
    }
  },
  {
    "name": "La Palmeraie",
    "url": "https://restaurant.michelin.fr/2btuhm0/la-palmeraie-la-croix-valmer",
    "address": {
      "street": "4 rue Bertin",
      "postalCode": "51100",
      "city": "Reims"
    }
  },
  {
    "name": "Le Grand Bleu",
    "url": "https://restaurant.michelin.fr/2d6bc3s/le-grand-bleu-sarlat-la-caneda",
    "address": {
      "street": "47 rue des îles",
      "postalCode": "29920",
      "city": "Névez"
    }
  },
  {
    "name": "Le Pré - Xavier Beaudiment",
    "url": "https://restaurant.michelin.fr/2ev16nl/le-pre-xavier-beaudiment-durtol",
    "address": {
      "street": "2 pl. de la Comédie",
      "postalCode": "33000",
      "city": "Bordeaux"
    }
  },
  {
    "name": "Auberge des Saints Pères",
    "url": "https://restaurant.michelin.fr/2aga7gz/auberge-des-saints-peres-aulnay-sous-bois",
    "address": {
      "street": "39 Grande-Rue",
      "postalCode": "50100",
      "city": "Cherbourg-en-Cotentin"
    }
  },
  {
    "name": "Le Pavé d'Auge",
    "url": "https://restaurant.michelin.fr/28wgjgo/le-pave-dauge-beuvron-en-auge",
    "address": {
      "street": "4 r. de la Libération",
      "postalCode": "49440",
      "city": "Loiré"
    }
  },
  {
    "name": "Auberge du Cellier",
    "url": "https://restaurant.michelin.fr/2a02pjj/auberge-du-cellier-montner",
    "address": {
      "street": "dans le parc de l'Orangerie",
      "postalCode": "67000",
      "city": "Strasbourg"
    }
  },
  {
    "name": "Louison",
    "url": "https://restaurant.michelin.fr/3068881/louison-le-puy-sainte-reparade",
    "address": {
      "street": "2750 route de la cride",
      "postalCode": "13610",
      "city": "Le Puy-Sainte-Réparade"
    }
  },
  {
    "name": "La Ferme de l'Hospital",
    "url": "https://restaurant.michelin.fr/2atzy38/la-ferme-de-lhospital-bossey",
    "address": {
      "street": "285 avenue Victor Hugo",
      "postalCode": "26000",
      "city": "Valence"
    }
  },
  {
    "name": "La Réserve Rimbaud",
    "url": "https://restaurant.michelin.fr/2d8d9p1/la-reserve-rimbaud-montpellier",
    "address": {
      "street": "4 r. Auguste-Vacquerie",
      "postalCode": "75016",
      "city": "Paris"
    }
  },
  {
    "name": "Auberge Grand'Maison",
    "url": "https://restaurant.michelin.fr/2a2flya/auberge-grandmaison-mur-de-bretagne",
    "address": {
      "street": "47 place des anciens Combattants",
      "postalCode": "01500",
      "city": "Ambronay"
    }
  },
  {
    "name": "Elsa",
    "url": "https://restaurant.michelin.fr/9p2kj2b/elsa-cap-martin",
    "address": {
      "street": "33 rue Chapelle St-Martin",
      "postalCode": "44115",
      "city": "HAUTE-GOULAINE"
    }
  }
]
